{
"type": "FeatureCollection",
"name": "artsakh_admin_2020_2023",
"crs": { "type": "name", "properties": { "name": "urn:ogc:def:crs:OGC:1.3:CRS84" } },
"features": [
{ "type": "Feature", "id": 1, "properties": { "name_hy": "Լաչինի միջանցք", "name_ru": "Лачинский коридор", "name_en": "Lachin сorridor" }, "geometry": { "type": "Polygon", "coordinates": [ [ [ 46.489974342445386, 39.586526346201239 ], [ 46.501231227297225, 39.593852007299454 ], [ 46.51194492732705, 39.605756561745707 ], [ 46.515714372294106, 39.618851469273622 ], [ 46.516904442757742, 39.636112890020051 ], [ 46.520078625233509, 39.651191859574723 ], [ 46.531387540270629, 39.663294828755951 ], [ 46.548648817867672, 39.667660002595227 ], [ 46.573053618697379, 39.630558212516988 ], [ 46.563530239224448, 39.624209068072339 ], [ 46.5565861620371, 39.617066328738538 ], [ 46.554999205984686, 39.603177821121818 ], [ 46.553610609765187, 39.591471792627402 ], [ 46.549245948832606, 39.578178470457715 ], [ 46.544428792022444, 39.574515828994535 ], [ 46.542660546837659, 39.573372372109688 ], [ 46.541422898220098, 39.573643373543241 ], [ 46.537606094577619, 39.575504108591957 ], [ 46.531978907400408, 39.576215310241984 ], [ 46.5273416636063, 39.579646327306385 ], [ 46.523931519090532, 39.579462429882881 ], [ 46.524471304168074, 39.581469621475193 ], [ 46.524294448388112, 39.582821605049141 ], [ 46.522750247709986, 39.583551872687565 ], [ 46.519609864985853, 39.584482767557745 ], [ 46.514490604919388, 39.584213890438519 ], [ 46.509661240845986, 39.582720946696071 ], [ 46.507142615260072, 39.582630866546928 ], [ 46.505585216498389, 39.58503467351143 ], [ 46.503633893340144, 39.585179191112985 ], [ 46.498805660930486, 39.584657642126679 ], [ 46.498782706003766, 39.584655162519681 ], [ 46.496030714161932, 39.584852192889016 ], [ 46.489974342445386, 39.586526346201239 ] ] ] } },
{ "type": "Feature", "id": 2, "properties": { "name_hy": "Արցախի հանրապետություն", "name_ru": "Республика Арцах", "name_en": "Republic of Artsakh" }, "geometry": { "type": "Polygon", "coordinates": [ [ [ 46.555817130696582, 39.69914324894841 ], [ 46.580419238797994, 39.713428864941839 ], [ 46.572482720658826, 39.725333181168843 ], [ 46.568514282609925, 39.73961843167563 ], [ 46.564545852860427, 39.753506868225216 ], [ 46.565736147284454, 39.760252720175977 ], [ 46.570100929724823, 39.767792240631678 ], [ 46.570894419457908, 39.774141273586167 ], [ 46.565934037470456, 39.784259965116611 ], [ 46.564148211765797, 39.791997813752566 ], [ 46.566330470413753, 39.801918189811154 ], [ 46.558394002360423, 39.811441622256588 ], [ 46.548671828003222, 39.823147508331409 ], [ 46.548076415700237, 39.832075813940698 ], [ 46.553234738226081, 39.843583483840106 ], [ 46.552441013419987, 39.848146833764865 ], [ 46.529227067335782, 39.865606348423597 ], [ 46.512163797638451, 39.879693023493509 ], [ 46.508989064970223, 39.890208551548554 ], [ 46.503036773368592, 39.894573428186725 ], [ 46.467521679465804, 39.909255086709585 ], [ 46.460378931208432, 39.914413575765657 ], [ 46.45363294012305, 39.922151360327689 ], [ 46.453632938478684, 39.922151359936663 ], [ 46.451152769803713, 39.926218671033986 ], [ 46.454525582442166, 39.930782074397058 ], [ 46.455318877099813, 39.946059420220166 ], [ 46.454326661118252, 39.954491703087434 ], [ 46.446092538458551, 39.965999200567346 ], [ 46.441628174970674, 39.975919490877395 ], [ 46.433493358926412, 39.982665222622671 ], [ 46.425358644313427, 39.984748390902737 ], [ 46.416926175177622, 39.993478188293189 ], [ 46.407997620386404, 40.005382490503983 ], [ 46.400954083506967, 40.010144166628578 ], [ 46.393116844647494, 40.018377954175484 ], [ 46.389049401875596, 40.023338075564062 ], [ 46.386469943392107, 40.03127432041137 ], [ 46.379823171882705, 40.038218478035354 ], [ 46.369605274899797, 40.036333480220897 ], [ 46.357601621435208, 40.03891261576937 ], [ 46.34956611227787, 40.040896581623905 ], [ 46.344308264686525, 40.04426943195157 ], [ 46.342423278812795, 40.049924005715503 ], [ 46.344010310196957, 40.060042780661398 ], [ 46.347184600505834, 40.069863965674791 ], [ 46.355418255981327, 40.079784419487396 ], [ 46.362163899074346, 40.088018395033622 ], [ 46.362461289607992, 40.09803794990237 ], [ 46.366429149386818, 40.110438435586943 ], [ 46.352739191858205, 40.10607330585993 ], [ 46.348374273472835, 40.104882807781458 ], [ 46.320597236978557, 40.110239436593261 ], [ 46.309585485093677, 40.118869996951943 ], [ 46.314049380951388, 40.130278453802937 ], [ 46.327639901940749, 40.145258354133787 ], [ 46.326548458333356, 40.15478187396792 ], [ 46.316429774139387, 40.152400859351317 ], [ 46.307799206197089, 40.147043760139354 ], [ 46.300061363261655, 40.146448439232692 ], [ 46.291132897940507, 40.15418619471523 ], [ 46.286569352966907, 40.163015244834803 ], [ 46.287561163327169, 40.173134011974142 ], [ 46.304127832210483, 40.185832270998056 ], [ 46.309286171543711, 40.196347906001762 ], [ 46.316428580842192, 40.206665159760085 ], [ 46.317618841097328, 40.214799860054029 ], [ 46.31146809322945, 40.221347209711944 ], [ 46.30035711988269, 40.23067219236993 ], [ 46.307102588739731, 40.246743242510789 ], [ 46.313252960323823, 40.257258890435494 ], [ 46.345394640945173, 40.265592398705081 ], [ 46.352338708934809, 40.272933545805074 ], [ 46.359183593876736, 40.279431462481519 ], [ 46.371187364193922, 40.271544941320933 ], [ 46.393805687631129, 40.272735675967922 ], [ 46.418606615009885, 40.267974230229953 ], [ 46.430312629481001, 40.266783940042423 ], [ 46.443010738164986, 40.262815965311468 ], [ 46.451740627754901, 40.262816078282739 ], [ 46.464636832483954, 40.272934999866159 ], [ 46.481898082783388, 40.278490617990649 ], [ 46.487651790602811, 40.282260424609888 ], [ 46.504515772406243, 40.30845036113336 ], [ 46.513046795425083, 40.329283202068993 ], [ 46.518998905413092, 40.333251418284767 ], [ 46.54895818678915, 40.338410387076628 ], [ 46.557489630854498, 40.340196160149432 ], [ 46.592011944235118, 40.359838896082771 ], [ 46.610463551654028, 40.369164262114985 ], [ 46.631494497725626, 40.376108778019287 ], [ 46.644192515920047, 40.376307349331178 ], [ 46.648359111662202, 40.373728112730063 ], [ 46.65212908286842, 40.362617371553185 ], [ 46.660264016743987, 40.350713058953282 ], [ 46.67415278139805, 40.337023158006808 ], [ 46.685462080491519, 40.331467909184134 ], [ 46.716612114622343, 40.32253999825673 ], [ 46.726334090895179, 40.320159240248088 ], [ 46.747365121448006, 40.323334023389428 ], [ 46.774149987696305, 40.324524811110571 ], [ 46.789030496778267, 40.3239297823322 ], [ 46.81065704064644, 40.31381130597449 ], [ 46.834466044188609, 40.304288078519825 ], [ 46.856886105443579, 40.299129786390111 ], [ 46.872560210873665, 40.299923616400186 ], [ 46.883274303595599, 40.293773138317967 ], [ 46.8963695459991, 40.275321458392845 ], [ 46.900337826539442, 40.268575672346188 ], [ 46.902719032561713, 40.25369517982697 ], [ 46.916409215577403, 40.247941553806584 ], [ 46.93446427034889, 40.24556090252667 ], [ 46.957082581916467, 40.247545263438624 ], [ 46.969383705679938, 40.251513561329702 ], [ 46.97692295301453, 40.260838786387176 ], [ 46.984263954702875, 40.262822950665758 ], [ 46.994779571229628, 40.259846981293208 ], [ 46.9979541686183, 40.255680475554598 ], [ 46.990613366880787, 40.244569590211384 ], [ 46.974741162726218, 40.229688862538993 ], [ 46.965614518816729, 40.226911047424608 ], [ 46.952519681659375, 40.226910878958499 ], [ 46.948154827195197, 40.222744276256101 ], [ 46.949940625790724, 40.216395275923759 ], [ 46.948948722947335, 40.21044305381394 ], [ 46.943790276677973, 40.20468918509615 ], [ 46.943195299828275, 40.193578386668221 ], [ 46.929306801702857, 40.195165463879775 ], [ 46.921172338568411, 40.185641824351919 ], [ 46.910855051245385, 40.192189121891353 ], [ 46.903514127892151, 40.186633632123588 ], [ 46.892006648258423, 40.181871716677236 ], [ 46.889427114901608, 40.193180881107658 ], [ 46.885458856678959, 40.198934632337256 ], [ 46.861848638832555, 40.191196456482814 ], [ 46.849547389732557, 40.192981960926808 ], [ 46.839627389051543, 40.177902903264233 ], [ 46.817406139427739, 40.164609350117402 ], [ 46.819787183540818, 40.157069915804257 ], [ 46.829509250443984, 40.150522610782041 ], [ 46.829310956516032, 40.145364026933528 ], [ 46.82613651577271, 40.142387881507936 ], [ 46.824549414532505, 40.135443617045631 ], [ 46.82117667542969, 40.127507294760925 ], [ 46.807883566994846, 40.121356507671088 ], [ 46.784074683441375, 40.125522747844997 ], [ 46.7759400213451, 40.12512582925541 ], [ 46.769988083077479, 40.113221334463198 ], [ 46.76959158147374, 40.098936027498048 ], [ 46.775543822794546, 40.096952034332162 ], [ 46.786257835564044, 40.094372881463066 ], [ 46.794194259668963, 40.087031925543293 ], [ 46.797765734119046, 40.079889320464254 ], [ 46.764632211814067, 40.062429081200285 ], [ 46.73824429832284, 40.054889277206655 ], [ 46.705110517763451, 40.049333456171709 ], [ 46.685071555498816, 40.044571431323845 ], [ 46.668207215455332, 40.034452459213142 ], [ 46.663247206106142, 40.02730974467616 ], [ 46.672373883353153, 40.028500303802637 ], [ 46.697968191254297, 40.035048062705329 ], [ 46.714832734452948, 40.035841907329775 ], [ 46.740030458359563, 40.031874091734942 ], [ 46.772172378936538, 40.029493620957695 ], [ 46.805107865980808, 40.029890857809463 ], [ 46.819194769228211, 40.028303782865621 ], [ 46.829512028930807, 40.022946927007517 ], [ 46.835861182381755, 40.016399578349699 ], [ 46.843797769373673, 40.001519157110067 ], [ 46.8560991035923, 39.995765512611733 ], [ 46.867011552875887, 39.991797513031756 ], [ 46.866416539402692, 39.982273970581474 ], [ 46.849552205812344, 39.971758184720102 ], [ 46.861258397280665, 39.962433206930889 ], [ 46.858679313210928, 39.953108046044946 ], [ 46.87415522136822, 39.944179930404026 ], [ 46.893003990321667, 39.937632741575037 ], [ 46.898956175623567, 39.938228038721284 ], [ 46.902924230566654, 39.941799415120954 ], [ 46.89677335983891, 39.954100568936454 ], [ 46.901733443474249, 39.957870365032946 ], [ 46.925343915601403, 39.953902527845166 ], [ 46.944986294289869, 39.948148976930725 ], [ 46.967009646661019, 39.938030502810001 ], [ 46.964628870137737, 39.933268704819334 ], [ 46.930899746498582, 39.933268273199388 ], [ 46.917804918963675, 39.932871291632992 ], [ 46.92455100921039, 39.920570145318813 ], [ 46.928965790267085, 39.909806623604567 ], [ 46.919789798501263, 39.895173991165606 ], [ 46.911060147369277, 39.884063088730962 ], [ 46.888838975419375, 39.866999804475753 ], [ 46.871329794405014, 39.857724054790992 ], [ 46.863592112149234, 39.849589269822225 ], [ 46.863889933391803, 39.839768128322568 ], [ 46.866568548375099, 39.833915156774523 ], [ 46.884474679251497, 39.836841888176735 ], [ 46.895585329401236, 39.842397425552505 ], [ 46.909870340095821, 39.854698840768755 ], [ 46.922965056380455, 39.860254403548311 ], [ 46.937250374630722, 39.85827051634309 ], [ 46.955503901903256, 39.852715354157255 ], [ 46.964878552947184, 39.85564197727998 ], [ 46.965423933486633, 39.866603969540769 ], [ 46.964580426378269, 39.879649218123816 ], [ 46.965572117506596, 39.895521789244235 ], [ 46.976533866033741, 39.905491879794589 ], [ 46.990819073629041, 39.908666574142387 ], [ 47.007882170614835, 39.902714582802453 ], [ 47.018992932440874, 39.903111538772364 ], [ 47.028516321698483, 39.909063869980464 ], [ 47.042007980134493, 39.908667228427518 ], [ 47.049944373027948, 39.902715120303313 ], [ 47.05907128247955, 39.893191701625192 ], [ 47.070578998675948, 39.887041232047217 ], [ 47.109467041658114, 39.870970762548048 ], [ 47.126331898549672, 39.857280895543106 ], [ 47.140419105127776, 39.841606923081834 ], [ 47.15371267644344, 39.82632975434926 ], [ 47.155696997778186, 39.814425360246013 ], [ 47.149943685839183, 39.792005297109654 ], [ 47.137444472049353, 39.773156473934719 ], [ 47.106493519102685, 39.750736090137679 ], [ 47.084867397433108, 39.741410686377122 ], [ 47.067804772067412, 39.725339503230906 ], [ 47.064233630974329, 39.717006364355314 ], [ 47.068400423791509, 39.70510199822548 ], [ 47.079511608481454, 39.685658254918401 ], [ 47.080305399771504, 39.677920392527788 ], [ 47.075543759466512, 39.672364936339648 ], [ 47.063441057753842, 39.667603014746156 ], [ 47.048957159880921, 39.677721586782013 ], [ 47.041417797601184, 39.673554944173965 ], [ 47.01760874276507, 39.685855874231962 ], [ 47.0015376216259, 39.694585576911756 ], [ 46.993403022846195, 39.691212554627199 ], [ 46.989831801339321, 39.686649148556107 ], [ 46.967610651220099, 39.668395423298556 ], [ 46.950547789435468, 39.663435031537645 ], [ 46.92634219304955, 39.663037909360177 ], [ 46.908683938372342, 39.666212196125585 ], [ 46.879716330172513, 39.677719431772722 ], [ 46.865778104679464, 39.68540752486625 ], [ 46.859230593924138, 39.689772394874744 ], [ 46.845391358220347, 39.707281633618109 ], [ 46.831701057315286, 39.718789063518862 ], [ 46.816621842179821, 39.733470987173533 ], [ 46.806304495515633, 39.742994390189352 ], [ 46.777733806461647, 39.749541455383337 ], [ 46.767614887561209, 39.758072825892505 ], [ 46.756007890051322, 39.768042628258939 ], [ 46.743210592198551, 39.771365781034 ], [ 46.732496704776331, 39.768191132533893 ], [ 46.729124005783895, 39.758270740919912 ], [ 46.729322501770675, 39.754104197089717 ], [ 46.738846141212107, 39.748350516677149 ], [ 46.741425524662844, 39.74378718931878 ], [ 46.7352750737044, 39.736644459796061 ], [ 46.705316109325921, 39.716604973088096 ], [ 46.688650190430018, 39.705692376893126 ], [ 46.68428547510441, 39.694978344858896 ], [ 46.659882738775728, 39.635455943023658 ], [ 46.65492288358282, 39.620972171142085 ], [ 46.64500277934728, 39.610456475336811 ], [ 46.630122426268443, 39.603908855600402 ], [ 46.616630745796527, 39.60549593916911 ], [ 46.601154677947271, 39.622161926664269 ], [ 46.597186406814878, 39.628709305814553 ], [ 46.581909109695054, 39.628312296793823 ], [ 46.573053617805151, 39.630558211922235 ], [ 46.573053618697379, 39.630558212516988 ], [ 46.548648817867672, 39.667660002595227 ], [ 46.5486488162176, 39.667660002178089 ], [ 46.548648816204292, 39.667660002198318 ], [ 46.555024141946568, 39.669382194527344 ], [ 46.551055602729107, 39.688429212112091 ], [ 46.555817130696582, 39.69914324894841 ] ] ] } }
]
}
