{
"type": "FeatureCollection",
"name": "NKR_1991_Declaration_NKAO_Shahumyan",
"crs": { "type": "name", "properties": { "name": "urn:ogc:def:crs:OGC:1.3:CRS84" } },
"features": [
{ "type": "Feature", "id": 2, "properties": { "name_hy": "Շահումյանի շրջան", "name_en": "Shahumyan rayon", "name_ru": "Шаумяновский район" }, "geometry": { "type": "MultiPolygon", "coordinates": [ [ [ [ 46.518132884201755, 40.330036596757779 ], [ 46.516492314087856, 40.326256702808571 ], [ 46.516117795193601, 40.320215985168758 ], [ 46.514848762780957, 40.316980793223067 ], [ 46.511484358051888, 40.313681380938917 ], [ 46.509346931676042, 40.310944829361645 ], [ 46.507789402329905, 40.306264145496698 ], [ 46.507655028970291, 40.30022024638793 ], [ 46.509563246805179, 40.297264137439669 ], [ 46.505793728699643, 40.294519433182209 ], [ 46.500127307517182, 40.292532021572242 ], [ 46.497783183691141, 40.292012785529586 ], [ 46.4952564, 40.2920313 ], [ 46.491725829716167, 40.291266633494395 ], [ 46.489023, 40.2875141 ], [ 46.4891104, 40.2807576 ], [ 46.487832, 40.2803442 ], [ 46.4863729, 40.2794929 ], [ 46.4848709, 40.279247399999967 ], [ 46.4840984, 40.27901820000001 ], [ 46.481871805254812, 40.278248488874006 ], [ 46.478143345147437, 40.277288564286273 ], [ 46.474897745369567, 40.275966188375968 ], [ 46.473133747102722, 40.275154017686674 ], [ 46.469635769541846, 40.273778675698587 ], [ 46.466464291821516, 40.273746773332412 ], [ 46.466341000307189, 40.27349986988596 ], [ 46.465463572834281, 40.271633154702911 ], [ 46.462821135280322, 40.268323132863706 ], [ 46.460835949321279, 40.266916763698433 ], [ 46.4591177, 40.2668686 ], [ 46.4575553, 40.2661992 ], [ 46.455771072729732, 40.265032682007025 ], [ 46.45013353526933, 40.262162309178656 ], [ 46.444192026691454, 40.261091589068322 ], [ 46.440327463484657, 40.26210157320056 ], [ 46.4383364, 40.2631447 ], [ 46.430600477203534, 40.265794704593979 ], [ 46.424798646509039, 40.265683081681338 ], [ 46.421980357846536, 40.268145197516915 ], [ 46.413715145071947, 40.267467851592158 ], [ 46.410682795211237, 40.268283474037361 ], [ 46.407680719371321, 40.267678818638217 ], [ 46.405982317433889, 40.269394102975333 ], [ 46.402959244876229, 40.270667420549799 ], [ 46.398902828937786, 40.271128738449434 ], [ 46.395223847353471, 40.272501383905016 ], [ 46.3921609, 40.2725903 ], [ 46.387923209587576, 40.272222771217528 ], [ 46.38246355984132, 40.274257570080586 ], [ 46.380683329511967, 40.271988773431893 ], [ 46.376076574261354, 40.271860443031763 ], [ 46.372977443837129, 40.270145364426298 ], [ 46.370473224394182, 40.270495656848048 ], [ 46.367686685459319, 40.271673651762036 ], [ 46.363214214176104, 40.27525310925725 ], [ 46.359334549137436, 40.278596426213738 ], [ 46.35829149511931, 40.28154791140792 ], [ 46.357031888467581, 40.284303677243415 ], [ 46.356123515178332, 40.285892647471776 ], [ 46.354160695411188, 40.287460957204992 ], [ 46.354418724417513, 40.288494207789959 ], [ 46.357331377093573, 40.290496251119507 ], [ 46.357331377093566, 40.290496251119507 ], [ 46.358480437013611, 40.292155339978095 ], [ 46.359062057624527, 40.293930165691087 ], [ 46.358471766592125, 40.29646414301196 ], [ 46.358567232825656, 40.300044513783682 ], [ 46.359386734494592, 40.308943155965167 ], [ 46.359425271890693, 40.313233212034966 ], [ 46.358812195350993, 40.315821991930655 ], [ 46.355499873179021, 40.321205807924727 ], [ 46.355301672027466, 40.323171580814801 ], [ 46.356721945976247, 40.325300179735166 ], [ 46.364514414549824, 40.332444174321182 ], [ 46.37169832847141, 40.339958447673268 ], [ 46.373516494920224, 40.342918390863154 ], [ 46.373467198111157, 40.34517329724509 ], [ 46.370699408459025, 40.351641854929852 ], [ 46.36852164478163, 40.35675804269669 ], [ 46.367826265556346, 40.362329340327172 ], [ 46.367723135811765, 40.36898442194888 ], [ 46.367919893184514, 40.376363145662857 ], [ 46.369315431450858, 40.384236705870237 ], [ 46.371164969075295, 40.388687038198398 ], [ 46.373685050906381, 40.391020507157727 ], [ 46.38069735897075, 40.394427510263974 ], [ 46.382541939559573, 40.396259811040174 ], [ 46.382548682592031, 40.398913986593278 ], [ 46.37957243499671, 40.404548927200864 ], [ 46.376083868393806, 40.408408266338306 ], [ 46.374875590140348, 40.409804308256831 ], [ 46.371764300773478, 40.411186574850973 ], [ 46.370509802477848, 40.412655838792503 ], [ 46.371112624746722, 40.4165755274351 ], [ 46.373128090068192, 40.422114618643178 ], [ 46.375243648813147, 40.425543625247428 ], [ 46.377902788324398, 40.427620810187108 ], [ 46.37441721502082, 40.434025218579535 ], [ 46.371710231003455, 40.43896590277452 ], [ 46.370642265564371, 40.442614516496654 ], [ 46.367745500405398, 40.445266710627308 ], [ 46.352930621042603, 40.454058259866784 ], [ 46.346782481020703, 40.458420476337373 ], [ 46.344969272368409, 40.460586795749855 ], [ 46.343917428085206, 40.462744235480002 ], [ 46.341746003947378, 40.470841243412956 ], [ 46.339025301865291, 40.482471418479449 ], [ 46.337521453375096, 40.490669666141983 ], [ 46.337362787540705, 40.494671016401071 ], [ 46.338388874841527, 40.497414120224747 ], [ 46.341948709843841, 40.500144444275179 ], [ 46.348195932951604, 40.502907734440207 ], [ 46.353548451245686, 40.503790494158551 ], [ 46.360127519523608, 40.504076827847292 ], [ 46.365285361653342, 40.504743179333488 ], [ 46.370583945746091, 40.505298553360262 ], [ 46.370583945746084, 40.505298553360262 ], [ 46.37824363769483, 40.507170828223991 ], [ 46.383326796530213, 40.508818955976409 ], [ 46.38895244888333, 40.509042337515481 ], [ 46.396607120918134, 40.50833196227282 ], [ 46.411984496303283, 40.5056362967984 ], [ 46.422573312412936, 40.504052053541514 ], [ 46.43468126156052, 40.501745787456166 ], [ 46.439123700807343, 40.500459956029111 ], [ 46.448740716664041, 40.501290713077537 ], [ 46.457756148072242, 40.50140108849844 ], [ 46.462723087175924, 40.501660089182089 ], [ 46.466366675696314, 40.500559498983442 ], [ 46.472740938167846, 40.500187556645585 ], [ 46.477134389467103, 40.500713214641181 ], [ 46.480736005056947, 40.502048749362771 ], [ 46.48485082222043, 40.505050080659224 ], [ 46.48935163404083, 40.510409605282902 ], [ 46.493470511323764, 40.517846329291196 ], [ 46.49688237516483, 40.52772808349512 ], [ 46.499344521096312, 40.533440812156798 ], [ 46.50282994805292, 40.540140032758259 ], [ 46.507023481448726, 40.546502675259369 ], [ 46.512355762520016, 40.552595742189382 ], [ 46.518265838836179, 40.557844716074541 ], [ 46.522910022087089, 40.560837679735094 ], [ 46.530971619591128, 40.565239538484448 ], [ 46.541134817031875, 40.569758235686017 ], [ 46.548718522864945, 40.571947362585604 ], [ 46.552771760985117, 40.571965657134562 ], [ 46.557034672125162, 40.570744804149207 ], [ 46.562299519662702, 40.567510544710572 ], [ 46.574636859891029, 40.55687184121502 ], [ 46.582342296409905, 40.550076623657247 ], [ 46.58449559734435, 40.548410984403965 ], [ 46.5851129535789, 40.546293735041758 ], [ 46.585440974606648, 40.544035020308975 ], [ 46.584384428690363, 40.539650163061225 ], [ 46.584470822455643, 40.53724932924947 ], [ 46.586485039950972, 40.535767351069531 ], [ 46.588757108283176, 40.535118033326761 ], [ 46.592496141145581, 40.536048222969384 ], [ 46.597085879577605, 40.536675666127152 ], [ 46.601178528931321, 40.536437218889183 ], [ 46.603201876828656, 40.535354765413011 ], [ 46.604117359312248, 40.533778650094433 ], [ 46.601565786235184, 40.530687239601747 ], [ 46.600058050007469, 40.527399525181956 ], [ 46.600621056973807, 40.52502843357108 ], [ 46.602869237590731, 40.523397495081134 ], [ 46.606219708321852, 40.522042059233485 ], [ 46.608290174641049, 40.520958861622404 ], [ 46.606811857222226, 40.518907005915231 ], [ 46.603551579465829, 40.516043634721626 ], [ 46.602417265300367, 40.51442324545755 ], [ 46.602288295493928, 40.511007343121129 ], [ 46.60159483947303, 40.507890132835236 ], [ 46.601191474901427, 40.504950688872107 ], [ 46.602874542166496, 40.501618730647614 ], [ 46.610085453359432, 40.496428281429907 ], [ 46.616625645724056, 40.493101052878465 ], [ 46.62298439690673, 40.490175947625843 ], [ 46.628132128528762, 40.488394677367168 ], [ 46.629958796534972, 40.487132735256424 ], [ 46.633636618738514, 40.481699738595601 ], [ 46.634031964235433, 40.472477260504391 ], [ 46.636478968790421, 40.470315656567145 ], [ 46.640780145922214, 40.469036652820506 ], [ 46.645373224151434, 40.469971205012186 ], [ 46.649577021350744, 40.473474406777356 ], [ 46.653000660546098, 40.478152085409761 ], [ 46.6552270209637, 40.48059259017959 ], [ 46.657567727674554, 40.481867940060646 ], [ 46.665601650509302, 40.483261286312015 ], [ 46.670937702723911, 40.481566865063918 ], [ 46.674629239235564, 40.479779434894439 ], [ 46.678899824518339, 40.476142556280656 ], [ 46.682446226746606, 40.473255018850743 ], [ 46.68956476494089, 40.469267742205879 ], [ 46.693918968251317, 40.467524571774319 ], [ 46.702936648780423, 40.464556076219765 ], [ 46.715200071530028, 40.46290218890951 ], [ 46.725814658834317, 40.461944267956511 ], [ 46.731075407524798, 40.46104751856064 ], [ 46.735263482869115, 40.459166788538738 ], [ 46.737295247240453, 40.456736611198401 ], [ 46.736626169034984, 40.454783316977476 ], [ 46.730987688611911, 40.452068316911934 ], [ 46.718838752626169, 40.447850280694617 ], [ 46.713196009180123, 40.444916314097966 ], [ 46.710814298560834, 40.442951878539226 ], [ 46.710859667782231, 40.440987847483981 ], [ 46.712826704952363, 40.437868237992191 ], [ 46.714082866078051, 40.434868215142316 ], [ 46.713285694210484, 40.427080976715267 ], [ 46.706675443856135, 40.418543744673208 ], [ 46.705248935519919, 40.416068589853921 ], [ 46.706921618563769, 40.415652354413858 ], [ 46.710203677337503, 40.415212298309342 ], [ 46.713263392136803, 40.414663572829163 ], [ 46.71689851743929, 40.413496779284948 ], [ 46.712044231671598, 40.411095631513675 ], [ 46.70917827836918, 40.40912288727278 ], [ 46.704891306134556, 40.407812218311989 ], [ 46.699572554869881, 40.405966974510861 ], [ 46.688221845508039, 40.402469357967007 ], [ 46.681571179099514, 40.39761998269951 ], [ 46.67601629863983, 40.393441323049849 ], [ 46.671473311009997, 40.391400326355317 ], [ 46.665194313061257, 40.386956805613522 ], [ 46.661004827706456, 40.382208144944471 ], [ 46.65747405517989, 40.379877247333901 ], [ 46.652901755478538, 40.37902670982659 ], [ 46.651518038526717, 40.377402502152364 ], [ 46.648249948804875, 40.376270851418141 ], [ 46.645130408615834, 40.375535268248477 ], [ 46.634731941319039, 40.375478684595087 ], [ 46.633144850294201, 40.37431529786096 ], [ 46.6302772133701, 40.372111589741657 ], [ 46.627378739444879, 40.372536269142635 ], [ 46.62248535177828, 40.371808980949709 ], [ 46.617192384793803, 40.37082973431103 ], [ 46.612969434762149, 40.370046432636784 ], [ 46.607770201113766, 40.367386732939579 ], [ 46.601605395502077, 40.363255501892439 ], [ 46.592692423533386, 40.359972973433329 ], [ 46.590167081475578, 40.358105256590441 ], [ 46.588458761848266, 40.35510548186609 ], [ 46.587047541286545, 40.353124425390092 ], [ 46.58184830763814, 40.350520662652222 ], [ 46.572475236046394, 40.348225968542259 ], [ 46.567661827254639, 40.348256439423778 ], [ 46.563557619330794, 40.348639334544281 ], [ 46.56156075856358, 40.347366248194781 ], [ 46.559039790764643, 40.344469064654255 ], [ 46.551569445191895, 40.339760525646533 ], [ 46.546271557959024, 40.338411672408434 ], [ 46.541186713739478, 40.338525337141469 ], [ 46.525398734249677, 40.333788217521544 ], [ 46.519319689043996, 40.331457344642693 ], [ 46.518132884201755, 40.330036596757779 ] ] ] ] } },
{ "type": "Feature", "id": 4, "properties": { "name_hy": "Լեռնային Ղարաբաղի Ինքնավար Մարզ", "name_en": "Nagorno-Karabakh Autonomous Oblast", "name_ru": "Нагорно-Карабахская автономная область" }, "geometry": { "type": "MultiPolygon", "coordinates": [ [ [ [ 46.525398734249677, 40.333788217521544 ], [ 46.541186713739478, 40.338525337141469 ], [ 46.546271557959024, 40.338411672408434 ], [ 46.551569445191895, 40.339760525646533 ], [ 46.559039790764643, 40.344469064654255 ], [ 46.56156075856358, 40.347366248194781 ], [ 46.563557619330794, 40.348639334544281 ], [ 46.567661827254639, 40.348256439423778 ], [ 46.572475236046394, 40.348225968542259 ], [ 46.58184830763814, 40.350520662652222 ], [ 46.587047541286545, 40.353124425390092 ], [ 46.588458761848266, 40.35510548186609 ], [ 46.590167081475578, 40.358105256590441 ], [ 46.592692423533386, 40.359972973433329 ], [ 46.601605395502077, 40.363255501892439 ], [ 46.607770201113766, 40.367386732939579 ], [ 46.612969434762149, 40.370046432636784 ], [ 46.62248535177828, 40.371808980949709 ], [ 46.627378739444879, 40.372536269142635 ], [ 46.6302772133701, 40.372111589741657 ], [ 46.634731941319039, 40.375478684595087 ], [ 46.645130408615834, 40.375535268248477 ], [ 46.648249948804875, 40.376270851418141 ], [ 46.651518038526717, 40.377402502152364 ], [ 46.652901755478538, 40.37902670982659 ], [ 46.65747405517989, 40.379877247333901 ], [ 46.661004827706456, 40.382208144944471 ], [ 46.665194313061257, 40.386956805613522 ], [ 46.671473311009997, 40.391400326355317 ], [ 46.67601629863983, 40.393441323049849 ], [ 46.681571179099514, 40.39761998269951 ], [ 46.688221845508039, 40.402469357967007 ], [ 46.699572554869881, 40.405966974510861 ], [ 46.704891306134556, 40.407812218311989 ], [ 46.70917827836918, 40.40912288727278 ], [ 46.712044231671598, 40.411095631513675 ], [ 46.71689851743929, 40.413496779284948 ], [ 46.728391320285745, 40.413050735860779 ], [ 46.741105406083051, 40.413501137416048 ], [ 46.746536512338494, 40.413244208218707 ], [ 46.748453988374948, 40.414993184018677 ], [ 46.754588295424867, 40.415862015897368 ], [ 46.762259587708051, 40.418218455301201 ], [ 46.773580696214481, 40.422625174640345 ], [ 46.783674421966481, 40.419080783089569 ], [ 46.794995099660532, 40.418905555911607 ], [ 46.809248377318404, 40.420835883410859 ], [ 46.808506117395318, 40.417733206857321 ], [ 46.807617239933549, 40.416823534180729 ], [ 46.80669735571275, 40.410892659957419 ], [ 46.805979114473288, 40.408384028987989 ], [ 46.813664624196733, 40.40230991016184 ], [ 46.821544912862471, 40.407956622567724 ], [ 46.824096008969768, 40.409244552316245 ], [ 46.826439540390346, 40.407284017768532 ], [ 46.825992978534188, 40.405229237685923 ], [ 46.823972863528311, 40.3980258749149 ], [ 46.830375361271287, 40.402183943947563 ], [ 46.832194035731533, 40.398954262086235 ], [ 46.831297236254706, 40.394200412896957 ], [ 46.826684424254353, 40.394181789040424 ], [ 46.827390703887019, 40.387071855810504 ], [ 46.824987872764467, 40.384590886483814 ], [ 46.824670574390062, 40.381710582916703 ], [ 46.829972359868123, 40.37402422361631 ], [ 46.834297453620493, 40.370108606852419 ], [ 46.836705432850806, 40.368375833030008 ], [ 46.840446172350624, 40.36721718663496 ], [ 46.841331196862342, 40.366652128776998 ], [ 46.838022617870806, 40.361759894993369 ], [ 46.841605950221343, 40.357031415729352 ], [ 46.843751499988514, 40.356676635784623 ], [ 46.849087324411656, 40.356957827056881 ], [ 46.852758916844635, 40.357677636034872 ], [ 46.857860989106108, 40.36034369483577 ], [ 46.857803942866489, 40.360442914548059 ], [ 46.861887495139321, 40.363072646656761 ], [ 46.864519446962852, 40.362984439328841 ], [ 46.867291294838665, 40.363626689974801 ], [ 46.872336094906409, 40.364186293444767 ], [ 46.877502074680258, 40.362636976999561 ], [ 46.874623409455047, 40.360302157362035 ], [ 46.873881533336316, 40.359823364145335 ], [ 46.86950932810138, 40.357224850274292 ], [ 46.86757169456876, 40.356431785113557 ], [ 46.863891115899825, 40.351041130333435 ], [ 46.864473074722227, 40.350436366350152 ], [ 46.868289398383837, 40.352069323171975 ], [ 46.869879412035466, 40.351873962184023 ], [ 46.871603150138505, 40.352840113120429 ], [ 46.873666734405397, 40.353860063758631 ], [ 46.874933461715507, 40.354205921037106 ], [ 46.876224313666192, 40.355421545885243 ], [ 46.878629290472638, 40.355794687047052 ], [ 46.880041190086004, 40.357054100274731 ], [ 46.88241059187385, 40.35674141858086 ], [ 46.883699062578657, 40.357269362995424 ], [ 46.885826628265434, 40.358425447371324 ], [ 46.881775262676449, 40.35913262718141 ], [ 46.882809153435581, 40.361863708239603 ], [ 46.879665465511138, 40.360769889643294 ], [ 46.879144675170444, 40.361419533394752 ], [ 46.880625457191691, 40.36299840767785 ], [ 46.881877109801906, 40.364947379296673 ], [ 46.882351434124828, 40.365855628323764 ], [ 46.882655483148483, 40.367100799016967 ], [ 46.882449282532676, 40.367126431221699 ], [ 46.881618825330399, 40.368030730490524 ], [ 46.882230954423058, 40.369529638761968 ], [ 46.883736791569099, 40.370686759476961 ], [ 46.883702267367497, 40.370812879466641 ], [ 46.885636338862533, 40.370931532134598 ], [ 46.885148704978668, 40.372771420210306 ], [ 46.886119274644791, 40.375366100903499 ], [ 46.888602765233159, 40.376378924906241 ], [ 46.892013648504836, 40.378429885007137 ], [ 46.893749936219415, 40.380553981140672 ], [ 46.908863997517571, 40.389831469455522 ], [ 46.912388135210307, 40.391605156404175 ], [ 46.913586032097591, 40.387371903370337 ], [ 46.914513470833938, 40.379937239590859 ], [ 46.915292512840409, 40.371497456639659 ], [ 46.921046182876097, 40.365356631359205 ], [ 46.917052431194605, 40.361759046994656 ], [ 46.91151397656337, 40.356446525698125 ], [ 46.914121527327652, 40.3512739685941 ], [ 46.915491712942995, 40.346808830528147 ], [ 46.916337552333061, 40.340991584637571 ], [ 46.917212528066983, 40.335814183806818 ], [ 46.917811511040981, 40.33347731048574 ], [ 46.918362589771732, 40.329450559582654 ], [ 46.91866255698487, 40.328300290910917 ], [ 46.919743908830007, 40.327034816803227 ], [ 46.920259727773526, 40.324975455546557 ], [ 46.9211362121627, 40.322121386095482 ], [ 46.922749771040415, 40.31994203755908 ], [ 46.928389604572423, 40.31838258551447 ], [ 46.932375583313835, 40.317583280621257 ], [ 46.936504244549162, 40.315499089348215 ], [ 46.942390438887578, 40.314209623689322 ], [ 46.943627856942996, 40.31354765599135 ], [ 46.944074142807935, 40.310334254939804 ], [ 46.944780574364565, 40.307849254095942 ], [ 46.944327879159331, 40.306666100759088 ], [ 46.945209702988116, 40.304040752286255 ], [ 46.940915241394769, 40.304479282993078 ], [ 46.931784690315972, 40.305674030802287 ], [ 46.92961860382011, 40.305859056704158 ], [ 46.926751140575554, 40.30599845516862 ], [ 46.923484590782515, 40.30683140057387 ], [ 46.922572101705555, 40.306296986648462 ], [ 46.92439581545127, 40.305213288695974 ], [ 46.925784026408166, 40.303541430349995 ], [ 46.926387068433975, 40.299501099736645 ], [ 46.926916002387358, 40.297064955491855 ], [ 46.926932865354367, 40.295553315114127 ], [ 46.928410453750629, 40.292826563460522 ], [ 46.932611891072611, 40.2912450858406 ], [ 46.940182973054171, 40.290385567211644 ], [ 46.945251751805657, 40.287781509195028 ], [ 46.949103020451879, 40.286525914487015 ], [ 46.953037636205323, 40.286093162118519 ], [ 46.954423500285493, 40.285618475612175 ], [ 46.95583666139413, 40.280575097813127 ], [ 46.956154628575902, 40.278842686540678 ], [ 46.958174091885638, 40.274465044322767 ], [ 46.961392883431913, 40.259699039381921 ], [ 46.961778997085759, 40.258511776927662 ], [ 46.962829359616947, 40.25762378319957 ], [ 46.965891264839755, 40.25601463481496 ], [ 46.970125452870739, 40.255617820646208 ], [ 46.974656450268007, 40.255863969983537 ], [ 46.979642950200557, 40.255709850092487 ], [ 46.98359235354544, 40.25526043056508 ], [ 46.985645418715031, 40.253705809004501 ], [ 46.990764746355701, 40.253167707798127 ], [ 46.992571740178334, 40.252379213986167 ], [ 46.99435880802411, 40.251021328698457 ], [ 46.997547824287302, 40.25007387581239 ], [ 46.998830284170289, 40.24693741009628 ], [ 47.000228966167072, 40.245722469507498 ], [ 47.002808832808419, 40.244029084482335 ], [ 47.004348780737288, 40.241529283098409 ], [ 47.006069163738346, 40.239072131681858 ], [ 47.006759310886139, 40.23718669923872 ], [ 47.008592996543136, 40.235496114051379 ], [ 47.012374932454726, 40.234056437112642 ], [ 47.016350962153481, 40.231107618718219 ], [ 47.011668211259114, 40.228349595357024 ], [ 47.00877180387468, 40.227392337569093 ], [ 47.00578439650824, 40.227398360758485 ], [ 47.002586417524526, 40.228369728161866 ], [ 46.998735930747138, 40.227474524532688 ], [ 46.998062327395687, 40.228951723700391 ], [ 46.996292837165655, 40.230771043498102 ], [ 46.993400593696904, 40.230955680407938 ], [ 46.984337617785833, 40.227539133924978 ], [ 46.978957048262657, 40.225387124710259 ], [ 46.975007, 40.2258106 ], [ 46.97399245269289, 40.229319040527841 ], [ 46.974812870500365, 40.232877365027491 ], [ 46.9733762, 40.2351483 ], [ 46.9713592, 40.2372778 ], [ 46.962863575627168, 40.243293861837685 ], [ 46.958026212780446, 40.243421621636521 ], [ 46.94941995235731, 40.243423817613511 ], [ 46.943735893403094, 40.243204573851678 ], [ 46.948478135159696, 40.237674723866668 ], [ 46.949551328588917, 40.235504089916361 ], [ 46.950674, 40.2346569 ], [ 46.951589310104396, 40.233637771654735 ], [ 46.952947283809642, 40.233065271286414 ], [ 46.956202748025106, 40.227829258071502 ], [ 46.957299688578544, 40.224421573517475 ], [ 46.958111683498132, 40.21942145309967 ], [ 46.9580888, 40.214339699999989 ], [ 46.958616416170216, 40.209978276280815 ], [ 46.949053359459491, 40.207712365899006 ], [ 46.944458131556594, 40.205774493940297 ], [ 46.942753728759243, 40.204658134119327 ], [ 46.942855718478413, 40.201954260116594 ], [ 46.945284644078107, 40.199165498177884 ], [ 46.945245389014907, 40.197792176644597 ], [ 46.943724902803794, 40.197880696205331 ], [ 46.942010362435191, 40.199541081186887 ], [ 46.940233101635584, 40.201099443763553 ], [ 46.934952841170414, 40.199201293893843 ], [ 46.934978525833294, 40.195903305470154 ], [ 46.932926756151026, 40.195158998880451 ], [ 46.930174745530081, 40.193939715900711 ], [ 46.929769206773784, 40.192274797002739 ], [ 46.928091339688514, 40.191020373831151 ], [ 46.926084530787179, 40.190801889258843 ], [ 46.921903867013718, 40.187619616198937 ], [ 46.919899756324867, 40.187492577689852 ], [ 46.917820924386938, 40.188952552759318 ], [ 46.913713354876691, 40.191539516453325 ], [ 46.908636872324749, 40.191531740906477 ], [ 46.905672920100351, 40.188054008512502 ], [ 46.900972603169009, 40.185951847625191 ], [ 46.897196958659087, 40.184981545686469 ], [ 46.892010368623581, 40.183142852750478 ], [ 46.889749906586772, 40.183454577731595 ], [ 46.891666419586663, 40.187957443912055 ], [ 46.891166161892627, 40.191446394536257 ], [ 46.891876558962537, 40.199816118927657 ], [ 46.8822669, 40.197888199999987 ], [ 46.8738555, 40.1973637 ], [ 46.869969591039421, 40.194865093738599 ], [ 46.862937360559442, 40.193238102126344 ], [ 46.854038848990079, 40.19324358349175 ], [ 46.85013119357982, 40.192298514682726 ], [ 46.849223322282711, 40.189656631019993 ], [ 46.847304431322584, 40.189366672657655 ], [ 46.843780219867824, 40.187132869007669 ], [ 46.842649189056146, 40.179542364223494 ], [ 46.832330150577391, 40.17439908867749 ], [ 46.812658454733516, 40.166602166419977 ], [ 46.815216944622705, 40.16515944662298 ], [ 46.819472234117086, 40.161314130137882 ], [ 46.822916819528302, 40.158420330204486 ], [ 46.826002882245781, 40.156637013591073 ], [ 46.82928393523968, 40.154341006678195 ], [ 46.830100017824087, 40.153612481398277 ], [ 46.829865391068211, 40.152654385570877 ], [ 46.828706026050149, 40.151710899351166 ], [ 46.828825703031278, 40.1506098033908 ], [ 46.83285582668946, 40.150660572732072 ], [ 46.834120192338311, 40.149959270875051 ], [ 46.834578989319787, 40.14926499884956 ], [ 46.8338583, 40.148832299999988 ], [ 46.827157839502696, 40.141825309729192 ], [ 46.825575840550329, 40.138461040552585 ], [ 46.825559517860469, 40.135621676435143 ], [ 46.829105148396842, 40.1330787836078 ], [ 46.832813042101805, 40.130194245159977 ], [ 46.830324727837656, 40.128630592304219 ], [ 46.825385181613157, 40.126876550810977 ], [ 46.822590405085748, 40.124996956500539 ], [ 46.818286852445908, 40.126942433228415 ], [ 46.812518814725841, 40.127674071621932 ], [ 46.807947307388083, 40.126279924313586 ], [ 46.809240855280223, 40.13006116005495 ], [ 46.808636805549874, 40.134284238628545 ], [ 46.804552385489771, 40.137782999619553 ], [ 46.795855564594248, 40.138376219928304 ], [ 46.790273213240354, 40.137134454194111 ], [ 46.781952751502551, 40.129293506823622 ], [ 46.781125778866269, 40.122756742168782 ], [ 46.779847064260245, 40.119478756279563 ], [ 46.778458740929224, 40.111988771580172 ], [ 46.774546157197371, 40.1083389312262 ], [ 46.774100381235819, 40.104956503012289 ], [ 46.771478681285295, 40.100462353815246 ], [ 46.771254708396945, 40.098725347279682 ], [ 46.773703742139546, 40.098871069325007 ], [ 46.778369328671481, 40.099394931880362 ], [ 46.781189231804582, 40.100038608579553 ], [ 46.78223486726278, 40.098969103620014 ], [ 46.782662807412649, 40.097084684086894 ], [ 46.786992849923656, 40.093903498284043 ], [ 46.788900096814103, 40.091584013587472 ], [ 46.788546915006414, 40.089482629633281 ], [ 46.790955241510687, 40.089822013828481 ], [ 46.792328632304311, 40.090431786300222 ], [ 46.793340152916343, 40.088074561395572 ], [ 46.7929797978042, 40.085704221224809 ], [ 46.793944998044516, 40.083857241143789 ], [ 46.795498943082926, 40.081726322406588 ], [ 46.79641164293399, 40.080154940519975 ], [ 46.7940999875835, 40.078404535474228 ], [ 46.790649747936065, 40.074152638999195 ], [ 46.780002525073876, 40.06593516102717 ], [ 46.776255755260848, 40.063977428065506 ], [ 46.768225421844569, 40.060023986163579 ], [ 46.763673498454686, 40.059177355119644 ], [ 46.757910042832926, 40.057570315086124 ], [ 46.754262673679868, 40.057121792948919 ], [ 46.752007756831709, 40.055186464863112 ], [ 46.750296194550621, 40.0535176907173 ], [ 46.747256551051002, 40.05351777485572 ], [ 46.743119916689778, 40.054908328938026 ], [ 46.737036713403171, 40.057106562626153 ], [ 46.732974307783657, 40.059091060263576 ], [ 46.728057217642444, 40.062645413188442 ], [ 46.721705107991369, 40.059515228469337 ], [ 46.7218616, 40.05801670000001 ], [ 46.723293561693382, 40.05574884842941 ], [ 46.72240770030006, 40.053706685678158 ], [ 46.722397326067586, 40.053294627451464 ], [ 46.722845130176168, 40.052142934013759 ], [ 46.723143786937186, 40.049802620719277 ], [ 46.724252084321073, 40.046482703973886 ], [ 46.7243249101654, 40.044632951914849 ], [ 46.723508139435985, 40.042972787418357 ], [ 46.723028374586939, 40.041668857133352 ], [ 46.719950960559984, 40.041330996236042 ], [ 46.715302337576247, 40.041308311308761 ], [ 46.708813946291329, 40.041587398852464 ], [ 46.705236392811067, 40.041502705642436 ], [ 46.702599333143723, 40.040815999500374 ], [ 46.701332547659213, 40.040277654663072 ], [ 46.698408038436973, 40.040091555187011 ], [ 46.691428311428567, 40.039429695431188 ], [ 46.689086054254048, 40.03903699205577 ], [ 46.686157993693747, 40.037493760931959 ], [ 46.684401852458109, 40.036351362913855 ], [ 46.68416803075845, 40.035324224386962 ], [ 46.685100345554851, 40.034469062380296 ], [ 46.687578301554616, 40.033471161575122 ], [ 46.69074526713478, 40.033559128642892 ], [ 46.691520159074777, 40.033848796125802 ], [ 46.697158755920924, 40.035369396108742 ], [ 46.700992446106028, 40.036183407015351 ], [ 46.707561636201561, 40.036773799704818 ], [ 46.712804458842221, 40.036742213125514 ], [ 46.716310718795171, 40.036369714383589 ], [ 46.727384445194566, 40.033640258381759 ], [ 46.7281694544521, 40.032872827496099 ], [ 46.726578972456231, 40.032415623518304 ], [ 46.725191494149797, 40.031737818532839 ], [ 46.725216730413152, 40.03037484666897 ], [ 46.728426513300825, 40.031254489577776 ], [ 46.729391601719819, 40.030541614914981 ], [ 46.729825862236282, 40.031222155028644 ], [ 46.731170284264167, 40.031373831137017 ], [ 46.731897689790188, 40.030687387615949 ], [ 46.730608637197591, 40.029779168598957 ], [ 46.730785127877951, 40.029100959409156 ], [ 46.733170891513993, 40.029202700727637 ], [ 46.734844293301407, 40.029406664319147 ], [ 46.741429356170102, 40.030636120800295 ], [ 46.742908987252385, 40.030247460581528 ], [ 46.743065515330294, 40.029374877930209 ], [ 46.741571929479747, 40.029214132103256 ], [ 46.73978641146492, 40.02912175694965 ], [ 46.738035983721417, 40.02839699968662 ], [ 46.738297664810297, 40.027557196591921 ], [ 46.741357165155136, 40.027797514429636 ], [ 46.742822752615979, 40.026859448716891 ], [ 46.744870950310208, 40.027744651571432 ], [ 46.745857714329347, 40.026722154633823 ], [ 46.745586817218019, 40.025443794614489 ], [ 46.744380279335999, 40.024368812205246 ], [ 46.743008781063473, 40.020123827263973 ], [ 46.743472353772169, 40.019613035967062 ], [ 46.745912622900448, 40.024202245399294 ], [ 46.746861340381315, 40.026284501436379 ], [ 46.7466974, 40.0275817 ], [ 46.7479645, 40.0300393 ], [ 46.74854366054079, 40.03158240680974 ], [ 46.749985944238389, 40.032064447045173 ], [ 46.752837749593233, 40.031746529310318 ], [ 46.757281737767265, 40.030786084274418 ], [ 46.763405569660307, 40.030280829355974 ], [ 46.764879906712693, 40.030269831433223 ], [ 46.767257819934422, 40.031218314308525 ], [ 46.770890462653107, 40.031723913586589 ], [ 46.771336300071106, 40.029381230160787 ], [ 46.771381808522243, 40.027685883776556 ], [ 46.774028308443697, 40.028653021973071 ], [ 46.777101281212296, 40.029979969093745 ], [ 46.777821013271421, 40.030163583481546 ], [ 46.77974686761484, 40.026321056179022 ], [ 46.781121353165098, 40.026483139855721 ], [ 46.785754710921616, 40.028243872548558 ], [ 46.787935315204294, 40.029408642593353 ], [ 46.788117993930875, 40.029764667228505 ], [ 46.788463610307815, 40.031591383408234 ], [ 46.789782853828896, 40.031914521220237 ], [ 46.792708974343, 40.032166989832618 ], [ 46.798137149928401, 40.032403479745533 ], [ 46.802623763651702, 40.030822319994591 ], [ 46.805547251103519, 40.028715743322522 ], [ 46.808057316849457, 40.026752949231138 ], [ 46.809175472405457, 40.026669240454503 ], [ 46.810580317762536, 40.027537971101168 ], [ 46.812634215512922, 40.028605084622285 ], [ 46.815789367878999, 40.028509878096038 ], [ 46.816570857059169, 40.028772434718078 ], [ 46.81932616044341, 40.029324616331621 ], [ 46.820970552836322, 40.028428561339922 ], [ 46.821298648634659, 40.027324176750732 ], [ 46.825349450159486, 40.027306229514934 ], [ 46.830037392443579, 40.022148352266264 ], [ 46.827422165614664, 40.02237283414815 ], [ 46.822212362681697, 40.023599916120119 ], [ 46.81914556204606, 40.023648108322121 ], [ 46.82154569203842, 40.022053159461677 ], [ 46.825566157172595, 40.019791425680872 ], [ 46.828261279715022, 40.018100087941932 ], [ 46.832697713077721, 40.016930772882624 ], [ 46.836373439390499, 40.016277159768038 ], [ 46.838729893872681, 40.01307950856026 ], [ 46.843181046399295, 40.003619545008029 ], [ 46.844438145712417, 39.999431630446914 ], [ 46.846962372750404, 39.995864728777164 ], [ 46.850468342850839, 39.993381329929711 ], [ 46.852425154680958, 39.993075258658763 ], [ 46.858381467553677, 39.991761656551425 ], [ 46.873219620716625, 39.989168494252816 ], [ 46.875322193609456, 39.987668850310641 ], [ 46.874932547310181, 39.986484324160173 ], [ 46.868781371531448, 39.979255481270634 ], [ 46.863189597262966, 39.975040191323785 ], [ 46.860015763675683, 39.973241713142855 ], [ 46.853993717001217, 39.969599894360442 ], [ 46.855518470905835, 39.96875106814683 ], [ 46.858535625222572, 39.96586303801012 ], [ 46.85871533672789, 39.963707489219502 ], [ 46.859569278990328, 39.960075477824667 ], [ 46.860219980516909, 39.95992763191947 ], [ 46.861559867240878, 39.96105115580459 ], [ 46.862474780449666, 39.964059351956159 ], [ 46.866984624494869, 39.967925712219085 ], [ 46.865210370020179, 39.963969559294895 ], [ 46.866998707535998, 39.961879703024785 ], [ 46.867005894206599, 39.959955927513356 ], [ 46.865243056484083, 39.956411797574326 ], [ 46.862589481581821, 39.955126227052403 ], [ 46.859310160232603, 39.954904068823978 ], [ 46.857928308094166, 39.95222393807007 ], [ 46.858870162450877, 39.949643952213165 ], [ 46.861544367690399, 39.947310959490288 ], [ 46.871056917810044, 39.942623451847226 ], [ 46.87519336556241, 39.943747449445667 ], [ 46.8888116, 39.9424165 ], [ 46.891420890826886, 39.942041053400771 ], [ 46.888273051958194, 39.937924440637794 ], [ 46.89868962689097, 39.935922234461508 ], [ 46.907215267673578, 39.934408235301483 ], [ 46.912366161031024, 39.939911141865608 ], [ 46.909126088011426, 39.9420446982705 ], [ 46.901353596789001, 39.946183883611305 ], [ 46.896124369596158, 39.948605411813645 ], [ 46.897772766788727, 39.951189112304171 ], [ 46.9014501, 39.9529775 ], [ 46.903591492322697, 39.951780716880783 ], [ 46.906796652946575, 39.951476126690615 ], [ 46.908647324232817, 39.949544913323408 ], [ 46.912637281249026, 39.952108832086665 ], [ 46.913806960360191, 39.948910221666473 ], [ 46.918518146185342, 39.947137692119071 ], [ 46.918751584645094, 39.944843764313589 ], [ 46.920904883431035, 39.943113452674211 ], [ 46.9223714, 39.9424 ], [ 46.925007908487892, 39.94089272622714 ], [ 46.9270277, 39.940343600000013 ], [ 46.928997000714027, 39.939527989937076 ], [ 46.933046125364704, 39.93897270785407 ], [ 46.936845891244019, 39.938680273816651 ], [ 46.935408518298523, 39.934124155493194 ], [ 46.931649932141859, 39.927408252557406 ], [ 46.925422251496343, 39.922168904021362 ], [ 46.924049200883729, 39.921534670001797 ], [ 46.924089433886422, 39.920846980883525 ], [ 46.926601164585357, 39.919202216761313 ], [ 46.931147598212156, 39.915644899612275 ], [ 46.9331001, 39.914287199999983 ], [ 46.936309661902875, 39.911208428374579 ], [ 46.936258091862911, 39.909377231932901 ], [ 46.93419483201545, 39.903686486855769 ], [ 46.932668905535714, 39.902292086162788 ], [ 46.928691005157354, 39.898281988172428 ], [ 46.922122695041345, 39.890925397647848 ], [ 46.918986564065982, 39.88080936576776 ], [ 46.916998339644728, 39.877727732254307 ], [ 46.916323054204156, 39.876960263572428 ], [ 46.912911979341743, 39.876146348872012 ], [ 46.902935809398151, 39.872234120414156 ], [ 46.901109094389753, 39.870661015384194 ], [ 46.896466555724693, 39.861805650808755 ], [ 46.89404873240057, 39.860333697387844 ], [ 46.890244248781954, 39.860304163894867 ], [ 46.888751570397098, 39.860053670827753 ], [ 46.888009840526095, 39.859012301372303 ], [ 46.886483344926475, 39.857525673972894 ], [ 46.883225087958976, 39.85529681888724 ], [ 46.88270851943961, 39.854770185641271 ], [ 46.87973789465687, 39.852619868608784 ], [ 46.878012312365748, 39.850357715892066 ], [ 46.874120328735252, 39.849275615844583 ], [ 46.866401070096444, 39.847293188022725 ], [ 46.865603833117014, 39.846378519422835 ], [ 46.8656625114536, 39.84415616703815 ], [ 46.865873742052536, 39.843179471019226 ], [ 46.865816636356932, 39.838874976504925 ], [ 46.866987564551579, 39.836588922662159 ], [ 46.869334876524405, 39.833322055789388 ], [ 46.87007824099711, 39.831706992515052 ], [ 46.872818199340777, 39.829784892133866 ], [ 46.878168634160133, 39.829927396576423 ], [ 46.883604722993219, 39.831030109941508 ], [ 46.886848867700081, 39.832351451793663 ], [ 46.891250293203299, 39.834707288857395 ], [ 46.896094796242679, 39.838006098259747 ], [ 46.896500909803073, 39.838205351477505 ], [ 46.897013932555957, 39.839055979239745 ], [ 46.898296366680988, 39.840317457448307 ], [ 46.900727445439458, 39.842292936978644 ], [ 46.902200817202782, 39.844009262029743 ], [ 46.902208398219138, 39.846436647130304 ], [ 46.901250496189675, 39.848330237475516 ], [ 46.901870982280457, 39.84928190739533 ], [ 46.905204842994436, 39.851654697868149 ], [ 46.906547066152207, 39.852915097357801 ], [ 46.907732507765893, 39.852804000301909 ], [ 46.910079263315993, 39.851711929656403 ], [ 46.91216929891484, 39.849937014913309 ], [ 46.913757298219821, 39.850127199610313 ], [ 46.914063992871462, 39.851829444994074 ], [ 46.915737742389318, 39.854320917328302 ], [ 46.917453177444216, 39.856170447695405 ], [ 46.919959513098341, 39.856541200269561 ], [ 46.924830596237321, 39.860720031500911 ], [ 46.929068426094659, 39.857122876254699 ], [ 46.9331056, 39.8551357 ], [ 46.935799261332541, 39.853438181129242 ], [ 46.938529, 39.8531755 ], [ 46.9404173, 39.8524836 ], [ 46.9424772, 39.8523518 ], [ 46.945734176569879, 39.851714669127979 ], [ 46.949722802121279, 39.85196829709728 ], [ 46.954888049257399, 39.853896625546227 ], [ 46.961868313739942, 39.852771118394237 ], [ 46.964060773396369, 39.852550803080668 ], [ 46.965404698204281, 39.854567399610858 ], [ 46.9653404, 39.8549545 ], [ 46.9640636, 39.856717 ], [ 46.962562605605783, 39.858289652962739 ], [ 46.963718665821247, 39.861396320888396 ], [ 46.964204997857571, 39.863861373447023 ], [ 46.962592501660126, 39.865674937386984 ], [ 46.96007053480232, 39.866862631704016 ], [ 46.958316084698744, 39.869960981296607 ], [ 46.956862457379586, 39.873191632843898 ], [ 46.957742902571063, 39.876978303598491 ], [ 46.960773043105959, 39.881095046618007 ], [ 46.962357153623415, 39.882442294662212 ], [ 46.963891047732666, 39.884110981271249 ], [ 46.968342084078849, 39.885913369545008 ], [ 46.970409728957634, 39.887527103902762 ], [ 46.968438992354329, 39.889301031393224 ], [ 46.965743226357532, 39.890675006761121 ], [ 46.965111731304567, 39.891464335504075 ], [ 46.96572508273438, 39.894202024065294 ], [ 46.968279696671601, 39.898280810522806 ], [ 46.969512981468128, 39.899817113762147 ], [ 46.973742884935731, 39.904233712542627 ], [ 46.977528258155125, 39.907650103338085 ], [ 46.984689718114062, 39.909350745099843 ], [ 46.990607304407121, 39.909533132772054 ], [ 46.998946848244692, 39.90998505589824 ], [ 47.002779526281934, 39.906804433119213 ], [ 47.01030298101719, 39.901727700714233 ], [ 47.014982424561232, 39.901096854420622 ], [ 47.021506744428109, 39.902540517075295 ], [ 47.024628492878634, 39.903539468104569 ], [ 47.02620635185847, 39.90259588190667 ], [ 47.027957035863309, 39.903481293281246 ], [ 47.02928629040818, 39.902175605433776 ], [ 47.030088700213611, 39.903169180577464 ], [ 47.029984709258535, 39.905690057586618 ], [ 47.031058685391031, 39.905808650654173 ], [ 47.030891133589073, 39.904162749422369 ], [ 47.032247399351135, 39.90377257521893 ], [ 47.033390382893757, 39.906225788198803 ], [ 47.036959738852588, 39.908269974227082 ], [ 47.041435548175244, 39.908786659150046 ], [ 47.044860001136172, 39.90410050659186 ], [ 47.051236170778999, 39.898400061237041 ], [ 47.058079396673975, 39.892599469735096 ], [ 47.066411465058458, 39.884939914413707 ], [ 47.076369334068424, 39.878029279291162 ], [ 47.083889814760141, 39.875100508497056 ], [ 47.087476435967766, 39.873799370100571 ], [ 47.092936173462384, 39.871548309343353 ], [ 47.096015638989172, 39.871172079522196 ], [ 47.099208298955567, 39.870610515319022 ], [ 47.104439553810771, 39.868683658416771 ], [ 47.108912283164159, 39.867228373308869 ], [ 47.112892742609162, 39.865232277053416 ], [ 47.119176891342015, 39.862781760625531 ], [ 47.122626438698596, 39.860932436492618 ], [ 47.128136268867529, 39.856526173175041 ], [ 47.132830502247003, 39.853370242323393 ], [ 47.135331012837902, 39.852821451806108 ], [ 47.141658730157275, 39.851834549958099 ], [ 47.153608807936543, 39.848223987081276 ], [ 47.157806550894016, 39.847550547185342 ], [ 47.161388311149416, 39.848079256522922 ], [ 47.168110817164347, 39.853999456989349 ], [ 47.170726613943799, 39.855919947764036 ], [ 47.179493390238193, 39.873800908197623 ], [ 47.187577787534842, 39.890640591395837 ], [ 47.189161667628113, 39.890791508865142 ], [ 47.200569065727763, 39.887852821632087 ], [ 47.219865256089285, 39.882703566774296 ], [ 47.225461633418384, 39.883599163015795 ], [ 47.229154053420444, 39.885635032553949 ], [ 47.232595468413322, 39.887715690841503 ], [ 47.239663605742891, 39.892983763286395 ], [ 47.243315433358411, 39.895569554152047 ], [ 47.252328735899923, 39.896631387500804 ], [ 47.260444120858821, 39.897361100146142 ], [ 47.266655149272566, 39.89832155053211 ], [ 47.267000588010205, 39.892322580788182 ], [ 47.267429046912362, 39.88932965158088 ], [ 47.267984771969601, 39.880937404202221 ], [ 47.269118395755001, 39.870243838599016 ], [ 47.270288803725506, 39.848053710183315 ], [ 47.272396321649104, 39.847096428447202 ], [ 47.289158536322553, 39.836553335894585 ], [ 47.299378618956972, 39.829481141515302 ], [ 47.310848771298055, 39.820780153817886 ], [ 47.319632874765702, 39.81529199845766 ], [ 47.326760924191277, 39.811805819309264 ], [ 47.335988752957029, 39.80809373549193 ], [ 47.340443752083821, 39.806378027099107 ], [ 47.349135189625038, 39.803523027300301 ], [ 47.350704890949416, 39.797308231639448 ], [ 47.352297729365311, 39.791779942583631 ], [ 47.352539909844154, 39.786691229213424 ], [ 47.353395504901286, 39.783925872119617 ], [ 47.352791429204387, 39.781877122924243 ], [ 47.354324456407959, 39.77809041475841 ], [ 47.349786898815552, 39.775571806607942 ], [ 47.348550795154765, 39.77413123289314 ], [ 47.346908881587943, 39.772973655905567 ], [ 47.347446450782236, 39.76783316039932 ], [ 47.348052387599282, 39.764706485072857 ], [ 47.347253651521143, 39.762157835328907 ], [ 47.344142521212163, 39.757915511581551 ], [ 47.343312986605184, 39.754451446405376 ], [ 47.34176270740727, 39.750727119519105 ], [ 47.339513499446497, 39.747383265730257 ], [ 47.335971520808044, 39.742645584576294 ], [ 47.332304663362748, 39.739467513617669 ], [ 47.325396741502828, 39.733120569804228 ], [ 47.324205246684926, 39.731477528351377 ], [ 47.321347587335353, 39.731168323303713 ], [ 47.31480550452909, 39.730657797014601 ], [ 47.309268173409336, 39.73003530980111 ], [ 47.303191334268419, 39.729240062633309 ], [ 47.294735112598154, 39.730025895037457 ], [ 47.284424375835165, 39.730343824091513 ], [ 47.281457394215998, 39.730310590584729 ], [ 47.27769165977535, 39.727636510257973 ], [ 47.270965248001062, 39.717875329681235 ], [ 47.247721099518486, 39.718007223538784 ], [ 47.242354149736101, 39.71710341616226 ], [ 47.234686340387775, 39.714732243719929 ], [ 47.228040950770932, 39.714630998764825 ], [ 47.205065493178267, 39.706413314305514 ], [ 47.200619005269189, 39.704574040568204 ], [ 47.196822518139854, 39.708264273316331 ], [ 47.1922619360125, 39.706564242501436 ], [ 47.187987789411842, 39.706415883073042 ], [ 47.18298797247386, 39.707700864188894 ], [ 47.181413801974678, 39.708554887588619 ], [ 47.180747316386366, 39.709987259657382 ], [ 47.181401095436634, 39.725089466619089 ], [ 47.179979843450191, 39.725161972964251 ], [ 47.178132317529474, 39.722998191041491 ], [ 47.174916958064486, 39.722600475415724 ], [ 47.164631344801741, 39.72370879845721 ], [ 47.157668639449994, 39.722968220803722 ], [ 47.154257017276898, 39.721978158597821 ], [ 47.155170071707559, 39.717014631980625 ], [ 47.1564288, 39.7117423 ], [ 47.156703177168993, 39.705306727500563 ], [ 47.158263455171202, 39.700193735238209 ], [ 47.156745154292167, 39.695229563186082 ], [ 47.156163065271429, 39.691213569636709 ], [ 47.156619878789449, 39.68930055688606 ], [ 47.157283127453596, 39.687753872184629 ], [ 47.156296278237932, 39.687474495013298 ], [ 47.151900085970901, 39.688128593324095 ], [ 47.146133276467999, 39.688555962758365 ], [ 47.138080325973412, 39.688864867173606 ], [ 47.132265400255143, 39.688697008252177 ], [ 47.128255496341325, 39.688427076827992 ], [ 47.127234200380506, 39.687987775926928 ], [ 47.126779415234274, 39.686690751586298 ], [ 47.129815374348112, 39.684207586251482 ], [ 47.128589179332742, 39.680955230902718 ], [ 47.126565596132565, 39.676824328367346 ], [ 47.126326098351996, 39.674813423402512 ], [ 47.125001968830425, 39.673188791409181 ], [ 47.123138114299152, 39.673291594211371 ], [ 47.122984570827612, 39.676019627480258 ], [ 47.122451230045584, 39.676991223112729 ], [ 47.118495888013236, 39.678483331573368 ], [ 47.114978190082468, 39.68048260797724 ], [ 47.113699465587743, 39.680308424860712 ], [ 47.113449499265769, 39.677247045140902 ], [ 47.113900308405775, 39.674536510785259 ], [ 47.112380297767537, 39.673281715873536 ], [ 47.106318611837061, 39.672750615486841 ], [ 47.104036546053649, 39.669814849161199 ], [ 47.10053358308334, 39.666530694604369 ], [ 47.097633034314768, 39.665808511315426 ], [ 47.094131462953612, 39.665642707650044 ], [ 47.09192899672388, 39.667285492609679 ], [ 47.088138124185996, 39.669323233120544 ], [ 47.084884308019731, 39.670503864382376 ], [ 47.08211821490147, 39.66917943127585 ], [ 47.077999697684191, 39.666230257117455 ], [ 47.072774752152299, 39.659957109420425 ], [ 47.060667281200296, 39.660035204697635 ], [ 47.058262592151543, 39.660169461451368 ], [ 47.053447341641728, 39.665659421263861 ], [ 47.052182145241645, 39.666964261369401 ], [ 47.047839366440733, 39.668415014302305 ], [ 47.045354172216008, 39.66855042522932 ], [ 47.04352792192978, 39.667918445039817 ], [ 47.042282549241293, 39.665879240137329 ], [ 47.041322632346507, 39.663468581455483 ], [ 47.038184234135336, 39.661309045371787 ], [ 47.034019415926394, 39.657940114809826 ], [ 47.032565774151635, 39.656866304046147 ], [ 47.027703861047343, 39.656768096210747 ], [ 47.02401312492654, 39.656191248249122 ], [ 47.019047704801721, 39.653552425829581 ], [ 47.024623206262298, 39.648668954299261 ], [ 47.029337299930468, 39.643731570021465 ], [ 47.031531196814612, 39.641769492161366 ], [ 47.038822441053298, 39.643931850695516 ], [ 47.046668126421672, 39.640770858305501 ], [ 47.050018595487856, 39.637871990261395 ], [ 47.051643987316936, 39.636744020200581 ], [ 47.057989268471914, 39.638967686227815 ], [ 47.064742615683194, 39.640954732634256 ], [ 47.069799299457323, 39.639673846176649 ], [ 47.075065165915795, 39.645396800135913 ], [ 47.075232522684793, 39.649012211583312 ], [ 47.081804321488029, 39.648848776122485 ], [ 47.094620901450881, 39.643580021886457 ], [ 47.099329882579632, 39.640609431764453 ], [ 47.106823109199738, 39.639603479917191 ], [ 47.117572237923703, 39.634644516517142 ], [ 47.121496486157, 39.635122521585458 ], [ 47.123823433237639, 39.629858515637089 ], [ 47.118305273246058, 39.629547078316158 ], [ 47.110163665172607, 39.62671813616177 ], [ 47.100391528252793, 39.624788364729206 ], [ 47.091664733044311, 39.622151903473842 ], [ 47.08992057913791, 39.623236763191294 ], [ 47.084043869398272, 39.620823217870964 ], [ 47.083122855938477, 39.621709992073498 ], [ 47.07660850515753, 39.623119854804386 ], [ 47.073344374201859, 39.623488064470628 ], [ 47.067482567471188, 39.623546759224865 ], [ 47.062196393754782, 39.623045304350413 ], [ 47.054645939755147, 39.62207985617588 ], [ 47.044376650256496, 39.619283884963771 ], [ 47.043878081637835, 39.615422311759197 ], [ 47.043136136739484, 39.613351330515052 ], [ 47.044149718943451, 39.612577748135578 ], [ 47.045290461526946, 39.613107301837701 ], [ 47.046617090193067, 39.613961200296757 ], [ 47.048391777922944, 39.612846535738285 ], [ 47.048883972668214, 39.611463765728601 ], [ 47.046474565551513, 39.608071019496087 ], [ 47.04562353457414, 39.607069260137912 ], [ 47.045432599999984, 39.60608858633266 ], [ 47.045998055456636, 39.601941810996571 ], [ 47.043149340917147, 39.59768646556649 ], [ 47.041883816136561, 39.59491472935629 ], [ 47.035579284573018, 39.593926101801664 ], [ 47.033118406549526, 39.592778316138798 ], [ 47.030644239668064, 39.591172677870901 ], [ 47.027999354486901, 39.589798981998946 ], [ 47.025867082342209, 39.587729237926759 ], [ 47.025396914331694, 39.585813699883971 ], [ 47.02420117457892, 39.583957300323881 ], [ 47.021110291358163, 39.580895797398561 ], [ 47.022754843713194, 39.580454945668116 ], [ 47.025579928980868, 39.579901887049537 ], [ 47.02701050083764, 39.579740540380868 ], [ 47.027855847214262, 39.575739887092624 ], [ 47.029692051854973, 39.570715260587228 ], [ 47.034977706710734, 39.574378671112818 ], [ 47.036280370603222, 39.575409321682329 ], [ 47.039575587193212, 39.576771419392408 ], [ 47.04284942183186, 39.577400947091064 ], [ 47.046369464888187, 39.58036200770281 ], [ 47.048625652606077, 39.58059706283089 ], [ 47.052461634481062, 39.580208733355555 ], [ 47.056027450589063, 39.587703192639907 ], [ 47.061332870540987, 39.594937655405047 ], [ 47.067290210210651, 39.594190546467019 ], [ 47.074790376124618, 39.591583468867192 ], [ 47.078435069124161, 39.589731999671045 ], [ 47.085551600436268, 39.590154087080002 ], [ 47.088728720534192, 39.591471089645964 ], [ 47.089609354753264, 39.593195760235567 ], [ 47.088966738299767, 39.593482135430492 ], [ 47.083986832944618, 39.593250963200241 ], [ 47.080803420015179, 39.592712593597263 ], [ 47.078905564835331, 39.594578690223102 ], [ 47.079529846628112, 39.597636309380661 ], [ 47.076201547275893, 39.598199677559201 ], [ 47.072362014302726, 39.598497255549226 ], [ 47.069431877882437, 39.599511355664866 ], [ 47.068110325712077, 39.600863177074345 ], [ 47.068185239480826, 39.603381003153025 ], [ 47.070281876139504, 39.606183431387393 ], [ 47.071493316753383, 39.60674782759213 ], [ 47.075586335629438, 39.605355919651473 ], [ 47.077387243171763, 39.605186316627851 ], [ 47.080759156780644, 39.605080158796234 ], [ 47.081929520626694, 39.606593581182196 ], [ 47.082019829852022, 39.611584465417153 ], [ 47.083447676638194, 39.613780295649811 ], [ 47.086110385778319, 39.61469435855004 ], [ 47.093847535754229, 39.614990258354389 ], [ 47.103324542947462, 39.615048034741626 ], [ 47.106001631010052, 39.614472792640143 ], [ 47.105292313554514, 39.612561942366398 ], [ 47.099610466407782, 39.612664793008669 ], [ 47.0945844733874, 39.612915849982826 ], [ 47.092188713610312, 39.611035316491972 ], [ 47.091561604207136, 39.605939605982414 ], [ 47.092298524822503, 39.603865209434346 ], [ 47.09162127364705, 39.599068114678992 ], [ 47.096804380713444, 39.597188360087387 ], [ 47.096671662228111, 39.590824165675549 ], [ 47.101833398367084, 39.593158433094125 ], [ 47.105907740904463, 39.595741199782395 ], [ 47.109398011939099, 39.597601584621955 ], [ 47.114174986598307, 39.598934620564371 ], [ 47.114071971389109, 39.595547096648353 ], [ 47.118414345490635, 39.59427711532804 ], [ 47.120247207840748, 39.594197872104736 ], [ 47.111898183332059, 39.574654766910598 ], [ 47.11114459817194, 39.574498699604241 ], [ 47.106098379550268, 39.574668448531781 ], [ 47.107577260610356, 39.580504394865279 ], [ 47.102454329830145, 39.583345393725956 ], [ 47.102210108250482, 39.579181752947413 ], [ 47.096708113062355, 39.57534213360271 ], [ 47.094570180953781, 39.573136354585195 ], [ 47.094601670547739, 39.57025019970596 ], [ 47.089286550057011, 39.564712131997133 ], [ 47.097049612383948, 39.563106576195061 ], [ 47.097481378864472, 39.561724691346974 ], [ 47.100669299178811, 39.559514354984437 ], [ 47.103004829679527, 39.56043396810346 ], [ 47.103261479058247, 39.557177308649464 ], [ 47.105464447083108, 39.555671712955103 ], [ 47.100604411185579, 39.551147535021528 ], [ 47.1005703, 39.5499365 ], [ 47.100305137878053, 39.549671910366619 ], [ 47.108410660018535, 39.545495816157896 ], [ 47.102668760156547, 39.539508045630519 ], [ 47.093745035126695, 39.53192843240025 ], [ 47.098324497262645, 39.530792359306922 ], [ 47.100359079285461, 39.529610523683488 ], [ 47.10202397592672, 39.529901043273881 ], [ 47.10150249262616, 39.526337822815577 ], [ 47.099180379585164, 39.523860611420744 ], [ 47.102989137624725, 39.52072293301385 ], [ 47.10313718051566, 39.517788843994573 ], [ 47.100257445326854, 39.517137219066989 ], [ 47.099226966091372, 39.516071817542205 ], [ 47.093801252515334, 39.518049021136818 ], [ 47.091322922443929, 39.51823105414249 ], [ 47.08773, 39.5187448 ], [ 47.083114913286316, 39.52022016737488 ], [ 47.082626847150244, 39.522097285018198 ], [ 47.079323134998937, 39.524355003648722 ], [ 47.07566092568571, 39.524512076809017 ], [ 47.072627149905387, 39.523924973884071 ], [ 47.070463056094553, 39.520757307662556 ], [ 47.068637309283979, 39.516678805553163 ], [ 47.069586589562178, 39.515139090981783 ], [ 47.070498925613215, 39.512008203200658 ], [ 47.072561114728245, 39.505787972294769 ], [ 47.073826984866614, 39.500635394741813 ], [ 47.075733851508936, 39.50067077327882 ], [ 47.07671430653685, 39.500309022473274 ], [ 47.0796033748599, 39.498058798150716 ], [ 47.083728692862231, 39.497618489518814 ], [ 47.085691186163231, 39.496025971733665 ], [ 47.083295508159466, 39.491030541076604 ], [ 47.082595383593457, 39.487378798497005 ], [ 47.082599152149854, 39.48156166927086 ], [ 47.080886362737431, 39.479622783501092 ], [ 47.075991391915203, 39.479985122988808 ], [ 47.073442286864314, 39.477740430626262 ], [ 47.072894953677952, 39.475230985484245 ], [ 47.070880458245782, 39.473068306926756 ], [ 47.069370560565893, 39.469980534847544 ], [ 47.06634057650043, 39.469438978604721 ], [ 47.064458590055125, 39.469747236107992 ], [ 47.059650263568678, 39.471023420597177 ], [ 47.0565493491696, 39.472086000773601 ], [ 47.055339903451198, 39.473160878113482 ], [ 47.055597161614848, 39.476008678392844 ], [ 47.05552025954011, 39.477280035916337 ], [ 47.055707149294633, 39.479612726472048 ], [ 47.055295200436817, 39.481681181978253 ], [ 47.052521145418858, 39.479806433258403 ], [ 47.05080393345785, 39.479699327885491 ], [ 47.048517468422546, 39.48033509117888 ], [ 47.043176407509669, 39.481619985853875 ], [ 47.041733121862016, 39.480775070303487 ], [ 47.038677704504053, 39.477347595006925 ], [ 47.039335774734347, 39.475595503597575 ], [ 47.036693874587854, 39.474176090720626 ], [ 47.037450373019794, 39.469719849872249 ], [ 47.037439992777607, 39.46733822397664 ], [ 47.037284786286087, 39.464043054589318 ], [ 47.036979029338255, 39.459925469047491 ], [ 47.040917858177878, 39.456925515079767 ], [ 47.044535902720732, 39.454974997629996 ], [ 47.046260372131577, 39.45347278439916 ], [ 47.045857355678436, 39.450059705861449 ], [ 47.046136600524918, 39.44748976348999 ], [ 47.045026855885986, 39.445906142767697 ], [ 47.042230454143514, 39.443207042236196 ], [ 47.042172947113727, 39.441238473692806 ], [ 47.043661104153415, 39.438620060766368 ], [ 47.044540284121794, 39.437349324579237 ], [ 47.044939091185817, 39.432807697648201 ], [ 47.047032209601781, 39.43167157063295 ], [ 47.054075871482226, 39.428157859677782 ], [ 47.065003418122508, 39.422193009527419 ], [ 47.067185527543309, 39.420093055449044 ], [ 47.06546301619391, 39.4197572268925 ], [ 47.060673984543072, 39.419567356748622 ], [ 47.057106972686569, 39.418760225119172 ], [ 47.055617938638981, 39.418328511325775 ], [ 47.051922208472504, 39.41514167198428 ], [ 47.050181105621832, 39.414164682712133 ], [ 47.045251539747269, 39.415213366924128 ], [ 47.041725229563703, 39.413763782348155 ], [ 47.04036243715332, 39.41360448086337 ], [ 47.036308730922656, 39.414316787445699 ], [ 47.033070093080326, 39.416663665443956 ], [ 47.029842448063, 39.417361304401524 ], [ 47.030140972254394, 39.419508899782677 ], [ 47.028974470206308, 39.422048496963257 ], [ 47.024701301254431, 39.426140343242544 ], [ 47.023941085597201, 39.425663138776081 ], [ 47.023279276660681, 39.423201218172757 ], [ 47.021235276047918, 39.42195423729671 ], [ 47.017475621890696, 39.420599580743485 ], [ 47.017794129994918, 39.419357335207664 ], [ 47.019978482368693, 39.415242820896303 ], [ 47.021097616586481, 39.411055172020482 ], [ 47.02290812454293, 39.408321231795405 ], [ 47.021010834201178, 39.410094785359995 ], [ 47.01406839018609, 39.415070490950825 ], [ 47.010220133458958, 39.414724827848872 ], [ 47.008054723592664, 39.415403498110877 ], [ 47.005100973503048, 39.413301644749396 ], [ 47.001678023180318, 39.40977964928544 ], [ 46.999847426799001, 39.405101460901633 ], [ 46.990046771721822, 39.400963914161011 ], [ 46.987241312853939, 39.397805545947598 ], [ 46.984380372025129, 39.396846682827729 ], [ 46.976756801196188, 39.402839502654679 ], [ 46.969234504565399, 39.40828045556502 ], [ 46.964841689635037, 39.411652690840313 ], [ 46.958059319449369, 39.414057309285845 ], [ 46.957022512973616, 39.414990855517551 ], [ 46.958374848473994, 39.416891894106541 ], [ 46.961723901845005, 39.418392815995453 ], [ 46.96578886322294, 39.415942334190497 ], [ 46.968534886349943, 39.416995202579514 ], [ 46.971347447701199, 39.41621468891659 ], [ 46.972453762495931, 39.41775329203454 ], [ 46.974594183848538, 39.418266628391422 ], [ 46.978184918650307, 39.419946187118718 ], [ 46.978711517914107, 39.421861024181716 ], [ 46.981984672954496, 39.424828394005637 ], [ 46.979646745318036, 39.425692696949753 ], [ 46.97621253835004, 39.425384666915505 ], [ 46.973997749441509, 39.426429982842961 ], [ 46.968240860633003, 39.42753525775241 ], [ 46.96401216570716, 39.42627841290421 ], [ 46.960919347691174, 39.427613133915521 ], [ 46.958845398707737, 39.42948027273011 ], [ 46.95663148999256, 39.430571049947169 ], [ 46.950843304598187, 39.430576680611793 ], [ 46.946548877866711, 39.431198296594978 ], [ 46.942835317528953, 39.433596437314343 ], [ 46.940851511100391, 39.436606871089936 ], [ 46.93820027246241, 39.438987130742795 ], [ 46.933849954034791, 39.439746627320794 ], [ 46.932704480892426, 39.441048203607252 ], [ 46.929741122060079, 39.442837997448081 ], [ 46.929203704555924, 39.444770713929003 ], [ 46.931943192314684, 39.447702539725896 ], [ 46.929024689911984, 39.448987719436793 ], [ 46.920645445354992, 39.451508267916672 ], [ 46.899234877964687, 39.459371930620733 ], [ 46.898990007601284, 39.463406750968147 ], [ 46.900200695507344, 39.466639108846046 ], [ 46.902919930242504, 39.46883906789116 ], [ 46.906760470691324, 39.470974772603022 ], [ 46.906817654178731, 39.475233668226828 ], [ 46.907060848935622, 39.479810142205302 ], [ 46.905690646098634, 39.48324051795808 ], [ 46.903874707304517, 39.484351214303615 ], [ 46.901587882119379, 39.48502990654567 ], [ 46.898790965288967, 39.484342747892832 ], [ 46.89084839331219, 39.481357482741721 ], [ 46.882934882300681, 39.47942470613765 ], [ 46.882199089152635, 39.48282617053605 ], [ 46.877239774634972, 39.487441022726365 ], [ 46.870803920891206, 39.48992661396737 ], [ 46.866731290167671, 39.492373927403861 ], [ 46.858473796734152, 39.497161756387889 ], [ 46.846533854171142, 39.504330910190198 ], [ 46.843559338533325, 39.503645246091118 ], [ 46.838996326541242, 39.501015039733204 ], [ 46.836643238388596, 39.496975611134914 ], [ 46.836371964260863, 39.49340711759131 ], [ 46.835838990052707, 39.491125291234361 ], [ 46.835142347909482, 39.482616574066959 ], [ 46.836171038881062, 39.479027544870775 ], [ 46.840869824466651, 39.477899727430888 ], [ 46.847374485558994, 39.475781137032875 ], [ 46.848688221256005, 39.473870289521912 ], [ 46.846244028118825, 39.468790932649512 ], [ 46.846407702753595, 39.466040033151131 ], [ 46.846843713426914, 39.462414511362134 ], [ 46.848611810829553, 39.460004552750483 ], [ 46.85111402046379, 39.458544788963025 ], [ 46.852033561982417, 39.457568240680132 ], [ 46.852209134570096, 39.45527519133578 ], [ 46.853290016075199, 39.453700597159184 ], [ 46.856728327229781, 39.451905155054042 ], [ 46.856518314621539, 39.450671771261803 ], [ 46.855367775564723, 39.447392167529607 ], [ 46.854614922906087, 39.443510741503381 ], [ 46.854077715099265, 39.438847181936616 ], [ 46.852190242300331, 39.436724414659302 ], [ 46.847956853160206, 39.435234382983928 ], [ 46.844026100538173, 39.434014228678137 ], [ 46.840428050045588, 39.431964180481856 ], [ 46.838761555533381, 39.430481650829627 ], [ 46.836589370776139, 39.427490136202934 ], [ 46.834507824022197, 39.422438591960955 ], [ 46.828617551722402, 39.423035208201618 ], [ 46.823307977502125, 39.423255981184404 ], [ 46.817663927020199, 39.421970159014251 ], [ 46.813185610876253, 39.422360696900384 ], [ 46.809334133544276, 39.421871009631985 ], [ 46.808508169171688, 39.420761619749698 ], [ 46.802022153214253, 39.420014886592753 ], [ 46.799751951923398, 39.416706228799278 ], [ 46.796543141314011, 39.415931333669668 ], [ 46.797083578618995, 39.41857971038246 ], [ 46.795224793989256, 39.422089639578054 ], [ 46.795111563851329, 39.425732929149511 ], [ 46.793475755795768, 39.428735526346351 ], [ 46.790109969776381, 39.43107765681011 ], [ 46.783269634826389, 39.433839462338454 ], [ 46.780129352675985, 39.438101681276308 ], [ 46.775371011191204, 39.441472417102887 ], [ 46.770357436867158, 39.44411395667187 ], [ 46.767691856024619, 39.448506030828682 ], [ 46.765657056740174, 39.454491660038521 ], [ 46.765618688725439, 39.459988899573389 ], [ 46.768883662210904, 39.460580554973276 ], [ 46.774667800138978, 39.464483807400569 ], [ 46.775712291081163, 39.46885886049597 ], [ 46.776223625955048, 39.472698697941361 ], [ 46.775940793460805, 39.480169280235344 ], [ 46.774437428298171, 39.483810848809817 ], [ 46.772516995972957, 39.489657407681783 ], [ 46.770441034355599, 39.496376598364087 ], [ 46.769212946531717, 39.501571277488388 ], [ 46.769185306391769, 39.505144498127272 ], [ 46.772668150753042, 39.507244279306057 ], [ 46.778466552318505, 39.50738473807322 ], [ 46.781169143110603, 39.506702088326378 ], [ 46.782126555704835, 39.507145464858858 ], [ 46.78068977647159, 39.508770659303877 ], [ 46.780208046265955, 39.510747653995089 ], [ 46.777754573270187, 39.511930327827976 ], [ 46.77914146782399, 39.515298679469829 ], [ 46.776859331925394, 39.516249687235906 ], [ 46.773138547377926, 39.516443919880267 ], [ 46.774208754409869, 39.518992669750311 ], [ 46.774671316921207, 39.519645895643379 ], [ 46.770451949395365, 39.520103467682539 ], [ 46.771758604405896, 39.522648637208292 ], [ 46.77278720825845, 39.525885105836515 ], [ 46.770628704180503, 39.527063131735922 ], [ 46.764113346560023, 39.529040206585023 ], [ 46.759554628663928, 39.5312163380096 ], [ 46.75181680610558, 39.531653857112914 ], [ 46.748837975575, 39.533164477166217 ], [ 46.736955665768797, 39.528716346605549 ], [ 46.726555048799575, 39.526718465810035 ], [ 46.720975382092192, 39.528312784620816 ], [ 46.716080450041751, 39.527698079317496 ], [ 46.708529636920765, 39.525204142152525 ], [ 46.706359787698453, 39.525077878350707 ], [ 46.703343630880276, 39.525371865644416 ], [ 46.696961408732655, 39.525602633156069 ], [ 46.694704605804048, 39.525223311272512 ], [ 46.69186323970618, 39.525127287347033 ], [ 46.689721094814395, 39.527036466087495 ], [ 46.688412184264855, 39.529162531500617 ], [ 46.688729686622189, 39.532501706172084 ], [ 46.688648815516295, 39.536487940290819 ], [ 46.689439480448584, 39.539820233240739 ], [ 46.688203898653953, 39.54254069569815 ], [ 46.689467767837954, 39.545866110265052 ], [ 46.691660306760156, 39.54844511193587 ], [ 46.692896632638515, 39.550625756694252 ], [ 46.692788190888628, 39.553467254494521 ], [ 46.693366567964453, 39.555835338691175 ], [ 46.692840348152743, 39.558047005286014 ], [ 46.692659389229163, 39.560339895241256 ], [ 46.69387357764824, 39.564032412829064 ], [ 46.696611595681368, 39.567107211089521 ], [ 46.699248299464763, 39.570870497776305 ], [ 46.694705757127963, 39.57398372233537 ], [ 46.689031894774317, 39.575462531860175 ], [ 46.681810854198474, 39.576689494203244 ], [ 46.680487004136047, 39.575792547547962 ], [ 46.666925061619317, 39.570537086489288 ], [ 46.662460836765355, 39.570715552910329 ], [ 46.65717371701475, 39.571134611871379 ], [ 46.653886002758547, 39.57225787308181 ], [ 46.653764196617196, 39.57291399920242 ], [ 46.654229725378997, 39.574268407033848 ], [ 46.659694762811121, 39.578816793382764 ], [ 46.6638278983052, 39.582407199601533 ], [ 46.664197805891703, 39.583951259687687 ], [ 46.664655860377756, 39.588250368842232 ], [ 46.66744123722691, 39.603188641445833 ], [ 46.671969062805353, 39.599413372928453 ], [ 46.676055608702548, 39.594544978081352 ], [ 46.67740913330946, 39.594204810077841 ], [ 46.686650162231452, 39.599292776000112 ], [ 46.689338130809745, 39.600261427616907 ], [ 46.693777523122826, 39.602053827621376 ], [ 46.69614604240126, 39.60263569210322 ], [ 46.700823270792171, 39.602613116260038 ], [ 46.703473681497428, 39.604452277126221 ], [ 46.706828940115471, 39.606051999012259 ], [ 46.709845574297134, 39.605916029789739 ], [ 46.714354925701102, 39.603879973113834 ], [ 46.716384810356622, 39.602155228559774 ], [ 46.720736553894412, 39.600945737919091 ], [ 46.728423152716339, 39.60051100173164 ], [ 46.736117640388358, 39.600396271356388 ], [ 46.740825601284207, 39.601608348519321 ], [ 46.741917391035763, 39.602645488031527 ], [ 46.740628969201452, 39.60321445410991 ], [ 46.737740079369203, 39.603715747972878 ], [ 46.737239399717033, 39.605005763636747 ], [ 46.739889359717964, 39.6115161513899 ], [ 46.739195224944474, 39.613358725135321 ], [ 46.736367686179527, 39.616332510441417 ], [ 46.736759988905639, 39.621365135488013 ], [ 46.735999754647374, 39.624124765220216 ], [ 46.734391648122447, 39.626141279638233 ], [ 46.732329652877972, 39.627775204478397 ], [ 46.728857843292417, 39.629888129465733 ], [ 46.727445830415085, 39.631466487021811 ], [ 46.726555292795879, 39.636151776090372 ], [ 46.730222410389082, 39.638295815418523 ], [ 46.730550468741512, 39.639573449346663 ], [ 46.729021117285619, 39.644772114225731 ], [ 46.724262373745482, 39.648782030677985 ], [ 46.718822028292749, 39.651610931230394 ], [ 46.716806662718994, 39.653976759940235 ], [ 46.717665413005662, 39.655154973461592 ], [ 46.722126103942578, 39.658203602079794 ], [ 46.722283224334014, 39.659758615828167 ], [ 46.721195164752189, 39.661286286443662 ], [ 46.712164752646721, 39.66517572444549 ], [ 46.70672329051073, 39.665622258361914 ], [ 46.699363462167646, 39.665180539694248 ], [ 46.693928606551395, 39.665901203671282 ], [ 46.689714372042026, 39.66564196844066 ], [ 46.683073331508837, 39.665509385837886 ], [ 46.679082326826283, 39.667124507604399 ], [ 46.675363672798674, 39.665300235620279 ], [ 46.667828476246562, 39.664950654081125 ], [ 46.668768454808173, 39.662143080229441 ], [ 46.668660753191737, 39.660129231958948 ], [ 46.665566901469269, 39.657150548486626 ], [ 46.663774319351802, 39.654061536010303 ], [ 46.663644794285922, 39.648658455342009 ], [ 46.663042334631456, 39.647459781857435 ], [ 46.659522893297051, 39.644778229428837 ], [ 46.657639796916186, 39.642835521372994 ], [ 46.659499056177864, 39.638823968010428 ], [ 46.659800761533504, 39.636575228717213 ], [ 46.658723996434141, 39.633659110834564 ], [ 46.656084768573145, 39.629803368691206 ], [ 46.652297531691119, 39.627475454894594 ], [ 46.653108369112367, 39.624211779451784 ], [ 46.652713577897778, 39.617575699343547 ], [ 46.64981425437049, 39.613439954927422 ], [ 46.648285694473842, 39.610676268705568 ], [ 46.645819473037839, 39.609062256650667 ], [ 46.64088330206738, 39.608170177659716 ], [ 46.637669358467193, 39.607482647700522 ], [ 46.633796781090396, 39.606483658400215 ], [ 46.629322692617109, 39.605080730748334 ], [ 46.625339778645809, 39.601884361285713 ], [ 46.620820249755042, 39.5985121180193 ], [ 46.619939865686348, 39.598845032311658 ], [ 46.617614859564554, 39.600709631213022 ], [ 46.611998632978754, 39.602367967293155 ], [ 46.611246096794567, 39.603111288597241 ], [ 46.611189497866235, 39.608333855018216 ], [ 46.609951822772061, 39.611145122766921 ], [ 46.607138849980771, 39.614985891397886 ], [ 46.602867611038313, 39.617243544819466 ], [ 46.603341192036098, 39.622367173103029 ], [ 46.605322704685406, 39.626095816348538 ], [ 46.603988271065255, 39.629870257399162 ], [ 46.5990743, 39.6351074 ], [ 46.597171101913446, 39.636393251167426 ], [ 46.593812625848336, 39.635598527816448 ], [ 46.587704918638117, 39.63275065293513 ], [ 46.58111353807778, 39.629450986093261 ], [ 46.574618273945553, 39.630363704684783 ], [ 46.566178238246835, 39.629103652648965 ], [ 46.56489608126514, 39.630037034776571 ], [ 46.564253524869741, 39.633068826440628 ], [ 46.563962133915354, 39.635912665518724 ], [ 46.561806388767401, 39.640155737202292 ], [ 46.559431978764458, 39.645226194123197 ], [ 46.560333271530766, 39.648420440870034 ], [ 46.56785933683171, 39.656334957077924 ], [ 46.569374327550065, 39.660436935838817 ], [ 46.56965481593862, 39.662356949748727 ], [ 46.5597581, 39.6704966 ], [ 46.55795035646188, 39.674240596515304 ], [ 46.557677103267821, 39.677908646384978 ], [ 46.557095561641852, 39.683687847401735 ], [ 46.557274225617441, 39.686766292237088 ], [ 46.557078859052694, 39.688222740561791 ], [ 46.557978609278869, 39.691325392148634 ], [ 46.560581913065079, 39.693718081382194 ], [ 46.564623506719208, 39.696778407568821 ], [ 46.568549163835733, 39.697320902521149 ], [ 46.575148553481171, 39.698101850910959 ], [ 46.577190597899865, 39.700547576958741 ], [ 46.580048093116154, 39.702340907632077 ], [ 46.579977050803294, 39.704425979980563 ], [ 46.580539317120888, 39.705677951110616 ], [ 46.583670172914069, 39.707742294451279 ], [ 46.587461901069126, 39.710783487568456 ], [ 46.588501479906824, 39.715417244272579 ], [ 46.588077562457336, 39.717621651646027 ], [ 46.579082793196228, 39.71852301801367 ], [ 46.576166053624775, 39.720669656797178 ], [ 46.575914395399209, 39.722642662460316 ], [ 46.577291970018791, 39.725830260576167 ], [ 46.576511828943978, 39.728039466872282 ], [ 46.574696467717715, 39.731682649119612 ], [ 46.574762112762969, 39.734567430928386 ], [ 46.57226078280862, 39.736754139128799 ], [ 46.571063108230646, 39.738877352633459 ], [ 46.571110940215988, 39.740983702464881 ], [ 46.566227106801257, 39.745401108392848 ], [ 46.566229698328193, 39.747015199605208 ], [ 46.566539043203527, 39.748694805237562 ], [ 46.567653520705242, 39.749930647392411 ], [ 46.57043485921151, 39.755624987867627 ], [ 46.569725453820645, 39.755751408881771 ], [ 46.570370711017482, 39.758032888829412 ], [ 46.570055789208638, 39.761151831296353 ], [ 46.570598590082888, 39.762839240031283 ], [ 46.571940868463429, 39.765752530915044 ], [ 46.571030540731684, 39.768787926689924 ], [ 46.571331912851235, 39.770295381060876 ], [ 46.57238705017302, 39.773624785964159 ], [ 46.57270528636419, 39.775479324646561 ], [ 46.565465798326912, 39.785982899606189 ], [ 46.564889091360364, 39.78721541326351 ], [ 46.564844672211045, 39.789185582484563 ], [ 46.565770290226347, 39.790730430936669 ], [ 46.566918834276308, 39.791631006471576 ], [ 46.569728723904149, 39.793557339641012 ], [ 46.566504598665787, 39.796926950501295 ], [ 46.567122116561549, 39.79797210171288 ], [ 46.56806402965654, 39.80022666843044 ], [ 46.565670512364683, 39.803350749111729 ], [ 46.562951284905452, 39.806524971747336 ], [ 46.561303181524053, 39.809491718079201 ], [ 46.561832382130369, 39.810879949631861 ], [ 46.563428024188354, 39.812495946045857 ], [ 46.563160515066578, 39.813140803331585 ], [ 46.561728681323089, 39.818106891962977 ], [ 46.560077333773982, 39.81875409608859 ], [ 46.556084757244761, 39.819373622699125 ], [ 46.552530845298428, 39.821138874544545 ], [ 46.549748089314086, 39.821542508616886 ], [ 46.545891331613859, 39.823059682055352 ], [ 46.545156771617116, 39.824741305027516 ], [ 46.546265751193438, 39.826512876747053 ], [ 46.548310736259538, 39.828959005132191 ], [ 46.550490608889191, 39.832113250265458 ], [ 46.551553849286506, 39.83448082684972 ], [ 46.55210940088395, 39.838046080739787 ], [ 46.552643873820905, 39.840672637524129 ], [ 46.554692698192824, 39.841297422224123 ], [ 46.555753318712043, 39.842863904501236 ], [ 46.556037437918079, 39.844921255161942 ], [ 46.555332361247366, 39.847907942711394 ], [ 46.554072796794308, 39.850684487998549 ], [ 46.550262775949285, 39.853025646490536 ], [ 46.548509420095947, 39.855659867683983 ], [ 46.544762009718845, 39.859488624773888 ], [ 46.538018170259789, 39.862234845257653 ], [ 46.532076985400259, 39.865015879592498 ], [ 46.521957358799391, 39.871057760978083 ], [ 46.520529833136223, 39.873710185957201 ], [ 46.51794241518693, 39.879034380970161 ], [ 46.513896871688559, 39.88295765142832 ], [ 46.514010694107448, 39.885429551584828 ], [ 46.510951895001739, 39.889637554978329 ], [ 46.510702932251554, 39.891839362658182 ], [ 46.508576758649312, 39.895210687980153 ], [ 46.507403597744826, 39.898661196588058 ], [ 46.505536246315742, 39.900288572255931 ], [ 46.502278919903134, 39.903628656974092 ], [ 46.499458010814834, 39.905176677349282 ], [ 46.498713064742418, 39.904970267575706 ], [ 46.494106357060119, 39.904535800753386 ], [ 46.490243687695276, 39.904677111030928 ], [ 46.483936828986394, 39.907515415081242 ], [ 46.48087290927392, 39.908644641459347 ], [ 46.479290140515175, 39.909718321282305 ], [ 46.473936589418265, 39.912465990286499 ], [ 46.471858629922657, 39.915423801056605 ], [ 46.468852752190571, 39.916721508604695 ], [ 46.466251375300317, 39.918861387642252 ], [ 46.465164886351019, 39.920913371110842 ], [ 46.464273564745511, 39.922355985196546 ], [ 46.462762126067666, 39.92331403085619 ], [ 46.462020886342351, 39.924124938046113 ], [ 46.461854361132943, 39.926085130530907 ], [ 46.457440841398935, 39.93327455815831 ], [ 46.457463607789727, 39.935049149536162 ], [ 46.458233777814335, 39.937696055454289 ], [ 46.458626529651717, 39.941481333772472 ], [ 46.459586631100557, 39.94675952162779 ], [ 46.460628887521906, 39.949946892204217 ], [ 46.460909699851165, 39.953355688601455 ], [ 46.460209037003636, 39.955740553314193 ], [ 46.463855757891317, 39.959290106046915 ], [ 46.464024604540533, 39.963020923865649 ], [ 46.457169932188513, 39.96397754830727 ], [ 46.449461317372588, 39.968196467204528 ], [ 46.446415404132253, 39.970547567855405 ], [ 46.445830539873334, 39.972455691007923 ], [ 46.446334824085739, 39.975197582309065 ], [ 46.447605194835873, 39.977563481159486 ], [ 46.448389322514139, 39.979454510207923 ], [ 46.448101097953653, 39.981313132138183 ], [ 46.446439426862099, 39.982982786763657 ], [ 46.44258384761109, 39.985091969811997 ], [ 46.436860052358661, 39.987567721753024 ], [ 46.433145088433825, 39.989308424966104 ], [ 46.430895175608939, 39.991351553035621 ], [ 46.426765245785191, 39.991768888541216 ], [ 46.424644394928507, 39.992871346119045 ], [ 46.421483774947859, 39.996963714374374 ], [ 46.420154498362898, 39.99947899961073 ], [ 46.421637320052099, 40.001496321763163 ], [ 46.420832204973685, 40.002880282126782 ], [ 46.417285638076144, 40.004183286137938 ], [ 46.410027587660657, 40.007478021142887 ], [ 46.408095445483056, 40.009104614199117 ], [ 46.398357915764713, 40.016459374476334 ], [ 46.39779132052491, 40.017886099193213 ], [ 46.396571429132372, 40.019412301414988 ], [ 46.396074598970692, 40.021342008062085 ], [ 46.393690401861413, 40.024210482814084 ], [ 46.390397589069096, 40.029288349276037 ], [ 46.390534333337797, 40.03308834125307 ], [ 46.387299711346245, 40.035188236963137 ], [ 46.386339834332375, 40.037810483165394 ], [ 46.383454916717604, 40.039539665060261 ], [ 46.380190227564107, 40.040174033035633 ], [ 46.377123252358977, 40.038790637050631 ], [ 46.372444214778689, 40.037243052131117 ], [ 46.37155701986832, 40.037574176424165 ], [ 46.367468191165628, 40.041698951978915 ], [ 46.365335240285788, 40.042319540541129 ], [ 46.359723887902753, 40.041835889112946 ], [ 46.354797878500882, 40.042855448186693 ], [ 46.352691759409389, 40.045051102886916 ], [ 46.348418453727959, 40.050269764304808 ], [ 46.35186281879561, 40.052657176912611 ], [ 46.352486308613791, 40.054046885110409 ], [ 46.351840385165772, 40.056046842918988 ], [ 46.350385431440046, 40.059338705222828 ], [ 46.349808032589088, 40.06179587894912 ], [ 46.352314254150279, 40.06644997833817 ], [ 46.355638263610395, 40.070235652781861 ], [ 46.35623369837969, 40.072111499612163 ], [ 46.358660451116073, 40.075513831019663 ], [ 46.359775098897025, 40.075901046642812 ], [ 46.362976926330546, 40.076504657369185 ], [ 46.36361240924073, 40.076978105981212 ], [ 46.362655325103475, 40.07831764137601 ], [ 46.363073379910325, 40.079847108345746 ], [ 46.364991295021369, 40.083328418398921 ], [ 46.36563959376852, 40.085931519593764 ], [ 46.366880015605638, 40.088321519477716 ], [ 46.369965134130652, 40.091995072437008 ], [ 46.369107981464872, 40.096837359931484 ], [ 46.368707568441636, 40.097689435975546 ], [ 46.368824549401097, 40.102039278244277 ], [ 46.369514920032614, 40.103748705579811 ], [ 46.371216344921145, 40.105308756555566 ], [ 46.370426130880624, 40.110516669436599 ], [ 46.370038062492085, 40.111986933098784 ], [ 46.369182951594738, 40.113966541982983 ], [ 46.364622743114936, 40.112646291142916 ], [ 46.361436435065237, 40.112878587533785 ], [ 46.3583564, 40.1124764 ], [ 46.3532065, 40.1114262 ], [ 46.349635271120448, 40.110194444299047 ], [ 46.348057515749311, 40.108305840484149 ], [ 46.345837409733782, 40.107644621885811 ], [ 46.343938954872471, 40.108170490928721 ], [ 46.340656817386524, 40.111139878704023 ], [ 46.33872821085366, 40.11317748976564 ], [ 46.335532648638576, 40.114496846527985 ], [ 46.332369796049257, 40.114441668074058 ], [ 46.325977341845956, 40.113965396813214 ], [ 46.324794265953855, 40.114482760993901 ], [ 46.322391476628859, 40.116708733696271 ], [ 46.319393831746694, 40.119033039003625 ], [ 46.317523129086545, 40.121023836173677 ], [ 46.316557676211552, 40.123553944614699 ], [ 46.317377786845427, 40.128949294449924 ], [ 46.318759239934998, 40.132506151502525 ], [ 46.320562906863628, 40.136287186943044 ], [ 46.322032066222263, 40.138194119066974 ], [ 46.325301055034565, 40.140584272683498 ], [ 46.330861770505095, 40.144184676079441 ], [ 46.333727988155538, 40.147312048597648 ], [ 46.332979111421395, 40.148694734710531 ], [ 46.333386715973568, 40.154277897308752 ], [ 46.333110712588564, 40.155426126762769 ], [ 46.330495802043224, 40.1560172765031 ], [ 46.327708298292009, 40.158093188233387 ], [ 46.31211544656842, 40.165965673365569 ], [ 46.309256565036456, 40.166318648441589 ], [ 46.304530636888479, 40.165822363243727 ], [ 46.30349053646902, 40.164505816105702 ], [ 46.299977444701554, 40.158728440699633 ], [ 46.297433736425589, 40.153672928571993 ], [ 46.299209237733258, 40.152874385036121 ], [ 46.303522766387431, 40.150581602811044 ], [ 46.305273571952114, 40.148500782980506 ], [ 46.306882114346372, 40.145230684346139 ], [ 46.30118346552878, 40.146852129875157 ], [ 46.29706871923635, 40.147035696662094 ], [ 46.29259070539031, 40.146948359009194 ], [ 46.289623551250365, 40.147851682512083 ], [ 46.288284810721535, 40.14965287106827 ], [ 46.289089146720649, 40.151155394117232 ], [ 46.288949072128169, 40.153218053433307 ], [ 46.28713018423025, 40.154887164407711 ], [ 46.287296232536654, 40.157358637468882 ], [ 46.288278824859724, 40.158813379980685 ], [ 46.291204302820375, 40.161986947242845 ], [ 46.294501230140398, 40.165843318218656 ], [ 46.295751593296188, 40.168806467949466 ], [ 46.297343260187098, 40.174010079695144 ], [ 46.298407829293566, 40.176608861996556 ], [ 46.304840174301262, 40.181986985962915 ], [ 46.308879973144855, 40.187117004357518 ], [ 46.310615218994307, 40.190395109739832 ], [ 46.312616853696575, 40.195090023458981 ], [ 46.31361115049399, 40.197094025913302 ], [ 46.316098438021847, 40.199081055751712 ], [ 46.317756011883532, 40.201398090575275 ], [ 46.317841442262299, 40.202725369162444 ], [ 46.315694637234614, 40.206001711869114 ], [ 46.316009192637395, 40.206822567636962 ], [ 46.316873684053235, 40.208278391944496 ], [ 46.317195355991622, 40.209465576776672 ], [ 46.317173744975669, 40.211435295752871 ], [ 46.318655163224548, 40.216204704559367 ], [ 46.319866582770139, 40.218595484340838 ], [ 46.320564552030291, 40.220694398394862 ], [ 46.319836953359442, 40.221687432313466 ], [ 46.315951012898502, 40.224662976935143 ], [ 46.31281220971384, 40.226118468115438 ], [ 46.312468787207116, 40.226900989676267 ], [ 46.311912890079867, 40.229059965963529 ], [ 46.311840557461963, 40.234602773935684 ], [ 46.310113091850546, 40.239546003332535 ], [ 46.310027122132588, 40.241287433261768 ], [ 46.310408160865933, 40.242451057657213 ], [ 46.311197790583925, 40.2431062361945 ], [ 46.313882822713147, 40.245961278344332 ], [ 46.314419554121599, 40.247443730654751 ], [ 46.314687385162983, 40.248929234858437 ], [ 46.314561738054117, 40.254793240763242 ], [ 46.317582904455726, 40.256453535162919 ], [ 46.31994764858829, 40.258167039502354 ], [ 46.320807564416661, 40.259348063031965 ], [ 46.322008312181815, 40.259609160607582 ], [ 46.325260918246912, 40.260854395598223 ], [ 46.326753410302587, 40.260745692019093 ], [ 46.333999192348074, 40.26134941510719 ], [ 46.337024099614318, 40.26012367423899 ], [ 46.340621161406162, 40.260631675685097 ], [ 46.342860740543067, 40.262025548290872 ], [ 46.343819808130178, 40.262151819163719 ], [ 46.346407247524247, 40.262991967718406 ], [ 46.348171558093334, 40.26452866821549 ], [ 46.351275058216338, 40.270263418010153 ], [ 46.354776563129789, 40.274939992466301 ], [ 46.357214567938449, 40.277247278517592 ], [ 46.359334549137436, 40.278596426213738 ], [ 46.363214214176104, 40.27525310925725 ], [ 46.367686685459319, 40.271673651762036 ], [ 46.370473224394182, 40.270495656848048 ], [ 46.372977443837129, 40.270145364426298 ], [ 46.376076574261354, 40.271860443031763 ], [ 46.380683329511967, 40.271988773431893 ], [ 46.38246355984132, 40.274257570080586 ], [ 46.387923209587576, 40.272222771217528 ], [ 46.3921609, 40.2725903 ], [ 46.395223847353471, 40.272501383905016 ], [ 46.398902828937786, 40.271128738449434 ], [ 46.402959244876229, 40.270667420549799 ], [ 46.405982317433889, 40.269394102975333 ], [ 46.407680719371321, 40.267678818638217 ], [ 46.410682795211237, 40.268283474037361 ], [ 46.413715145071947, 40.267467851592158 ], [ 46.421980357846536, 40.268145197516915 ], [ 46.424798646509039, 40.265683081681338 ], [ 46.430600477203534, 40.265794704593979 ], [ 46.4383364, 40.2631447 ], [ 46.440327463484657, 40.26210157320056 ], [ 46.444192026691454, 40.261091589068322 ], [ 46.45013353526933, 40.262162309178656 ], [ 46.455771072729732, 40.265032682007025 ], [ 46.4575553, 40.2661992 ], [ 46.4591177, 40.2668686 ], [ 46.460835949321279, 40.266916763698433 ], [ 46.462821135280322, 40.268323132863706 ], [ 46.465463572834281, 40.271633154702911 ], [ 46.466464291821516, 40.273746773332412 ], [ 46.469635769541846, 40.273778675698587 ], [ 46.473133747102722, 40.275154017686674 ], [ 46.474897745369567, 40.275966188375968 ], [ 46.478143345147437, 40.277288564286273 ], [ 46.481871805254812, 40.278248488874006 ], [ 46.4848709, 40.279247399999967 ], [ 46.4863729, 40.2794929 ], [ 46.487832, 40.2803442 ], [ 46.4891104, 40.2807576 ], [ 46.489023, 40.2875141 ], [ 46.491725829716167, 40.291266633494395 ], [ 46.4952564, 40.2920313 ], [ 46.497783183691141, 40.292012785529586 ], [ 46.500127307517182, 40.292532021572242 ], [ 46.505793728699643, 40.294519433182209 ], [ 46.509563246805179, 40.297264137439669 ], [ 46.507655028970291, 40.30022024638793 ], [ 46.507789402329905, 40.306264145496698 ], [ 46.509346931676042, 40.310944829361645 ], [ 46.511484358051888, 40.313681380938917 ], [ 46.514848762780957, 40.316980793223067 ], [ 46.516117795193601, 40.320215985168758 ], [ 46.516492314087856, 40.326256702808571 ], [ 46.518132884201755, 40.330036596757779 ], [ 46.519319689043996, 40.331457344642693 ], [ 46.525398734249677, 40.333788217521544 ] ], [ [ 46.337319999708306, 40.207169879475082 ], [ 46.335907306235114, 40.208977904621229 ], [ 46.333019618253125, 40.211105734640107 ], [ 46.328711621604874, 40.211306685293906 ], [ 46.329259361274573, 40.20564767299431 ], [ 46.331406093740881, 40.200979686835211 ], [ 46.334023272241275, 40.198501717831427 ], [ 46.337629584142398, 40.197803976222346 ], [ 46.342866487088152, 40.194689853112365 ], [ 46.343285263515376, 40.192565219682699 ], [ 46.341742733729482, 40.187763145143592 ], [ 46.343201226253115, 40.184970331646639 ], [ 46.340940500151454, 40.183785241656388 ], [ 46.341350334131299, 40.181206476784695 ], [ 46.343204409856945, 40.178459547227234 ], [ 46.344652674026612, 40.176827662954324 ], [ 46.346372547977964, 40.180618226811134 ], [ 46.346940754597668, 40.182731394218187 ], [ 46.352378470082243, 40.184838239003568 ], [ 46.355578081297516, 40.186895352109886 ], [ 46.36073606856867, 40.188147071979266 ], [ 46.365679649574702, 40.190183387483238 ], [ 46.369567728734076, 40.192080571425677 ], [ 46.370136757892027, 40.194193607329481 ], [ 46.364181370301168, 40.199159610035991 ], [ 46.358762982895485, 40.201393586389557 ], [ 46.357097814874237, 40.203709539312747 ], [ 46.356782152451359, 40.206034891059836 ], [ 46.361222647009271, 40.209187635774065 ], [ 46.366196109857761, 40.209356151408116 ], [ 46.36634192452815, 40.210061018425769 ], [ 46.35999678322311, 40.212078872156518 ], [ 46.356681414182368, 40.214187078509752 ], [ 46.352398096301897, 40.217290681740778 ], [ 46.349703153872582, 40.214192965115515 ], [ 46.350058005613434, 40.212170001142518 ], [ 46.352275706166218, 40.211134697427688 ], [ 46.351463866419351, 40.210033826174687 ], [ 46.34646645387587, 40.210319191855035 ], [ 46.343416547088566, 40.20921904398967 ], [ 46.338905446803473, 40.207454373497626 ], [ 46.337319999708306, 40.207169879475082 ] ] ], [ [ [ 46.960279576211676, 39.936271101268524 ], [ 46.964688129364745, 39.936471270889022 ], [ 46.968887693524188, 39.937682446534239 ], [ 46.973975782080124, 39.936679889522026 ], [ 46.974652560019685, 39.935385932317331 ], [ 46.973674770341418, 39.934486563120139 ], [ 46.97157406186264, 39.931774245135699 ], [ 46.969013565703222, 39.929619311239271 ], [ 46.964481285936984, 39.929238195098932 ], [ 46.955908193030858, 39.929016752839225 ], [ 46.950998430701055, 39.927908656625938 ], [ 46.948098008754393, 39.930522304698158 ], [ 46.944861006777991, 39.929660632890268 ], [ 46.943602013458488, 39.931422196555808 ], [ 46.940750341264938, 39.933145694678288 ], [ 46.943255782553273, 39.936008125637365 ], [ 46.960279576211676, 39.936271101268524 ] ] ] ] } }
]
}
